<?xml version='1.0' encoding='UTF-8'?>
<kml xmlns='http://www.opengis.net/kml/2.2'>
  <Document>
    <name>circle.kml</name>
    <Placemark>
      <Style>
        <IconStyle>
          <color>ff0000ff</color>
          <scale>0.6</scale>
          <Icon>
            <href>http://maps.google.com/mapfiles/kml/shapes/placemark_circle.png</href>
          </Icon>
        </IconStyle>
      </Style>
      <Point>
        <altitudeMode>absolute</altitudeMode>
        <coordinates>-91.783716,37.94797154624587,400.0</coordinates>
      </Point>
    </Placemark>
    <Placemark>
      <Style>
        <IconStyle>
          <color>ff0000ff</color>
          <scale>0.6</scale>
          <Icon>
            <href>http://maps.google.com/mapfiles/kml/shapes/placemark_circle.png</href>
          </Icon>
        </IconStyle>
      </Style>
      <Point>
        <altitudeMode>absolute</altitudeMode>
        <coordinates>-91.783716,37.94910342350386,400.0</coordinates>
      </Point>
    </Placemark>
    <Placemark>
      <Style>
        <IconStyle>
          <color>ff0000ff</color>
          <scale>0.6</scale>
          <Icon>
            <href>http://maps.google.com/mapfiles/kml/shapes/placemark_circle.png</href>
          </Icon>
        </IconStyle>
      </Style>
      <Point>
        <altitudeMode>absolute</altitudeMode>
        <coordinates>-91.783716,37.94910342350386,400.0</coordinates>
      </Point>
    </Placemark>
    <Placemark>
      <Style>
        <IconStyle>
          <color>ff0000ff</color>
          <scale>0.6</scale>
          <Icon>
            <href>http://maps.google.com/mapfiles/kml/shapes/placemark_circle.png</href>
          </Icon>
        </IconStyle>
      </Style>
      <Point>
        <altitudeMode>absolute</altitudeMode>
        <coordinates>-91.783716,37.94908697835585,384.9231131498839</coordinates>
      </Point>
    </Placemark>
    <Placemark>
      <Style>
        <IconStyle>
          <color>ff0000ff</color>
          <scale>0.6</scale>
          <Icon>
            <href>http://maps.google.com/mapfiles/kml/shapes/placemark_circle.png</href>
          </Icon>
        </IconStyle>
      </Style>
      <Point>
        <altitudeMode>absolute</altitudeMode>
        <coordinates>-91.783716,37.94903859864406,370.72244016124256</coordinates>
      </Point>
    </Placemark>
    <Placemark>
      <Style>
        <IconStyle>
          <color>ff0000ff</color>
          <scale>0.6</scale>
          <Icon>
            <href>http://maps.google.com/mapfiles/kml/shapes/placemark_circle.png</href>
          </Icon>
        </IconStyle>
      </Style>
      <Point>
        <altitudeMode>absolute</altitudeMode>
        <coordinates>-91.783716,37.94896109602147,358.2232725308299</coordinates>
      </Point>
    </Placemark>
    <Placemark>
      <Style>
        <IconStyle>
          <color>ff0000ff</color>
          <scale>0.6</scale>
          <Icon>
            <href>http://maps.google.com/mapfiles/kml/shapes/placemark_circle.png</href>
          </Icon>
        </IconStyle>
      </Style>
      <Point>
        <altitudeMode>absolute</altitudeMode>
        <coordinates>-91.783716,37.94885897465881,348.1520164486996</coordinates>
      </Point>
    </Placemark>
    <Placemark>
      <Style>
        <IconStyle>
          <color>ff0000ff</color>
          <scale>0.6</scale>
          <Icon>
            <href>http://maps.google.com/mapfiles/kml/shapes/placemark_circle.png</href>
          </Icon>
        </IconStyle>
      </Style>
      <Point>
        <altitudeMode>absolute</altitudeMode>
        <coordinates>-91.783716,37.948738169478474,341.0939767108189</coordinates>
      </Point>
    </Placemark>
    <Placemark>
      <Style>
        <IconStyle>
          <color>ff0000ff</color>
          <scale>0.6</scale>
          <Icon>
            <href>http://maps.google.com/mapfiles/kml/shapes/placemark_circle.png</href>
          </Icon>
        </IconStyle>
      </Style>
      <Point>
        <altitudeMode>absolute</altitudeMode>
        <coordinates>-91.783716,37.94860570123843,337.4593409318226</coordinates>
      </Point>
    </Placemark>
    <Placemark>
      <Style>
        <IconStyle>
          <color>ff0000ff</color>
          <scale>0.6</scale>
          <Icon>
            <href>http://maps.google.com/mapfiles/kml/shapes/placemark_circle.png</href>
          </Icon>
        </IconStyle>
      </Style>
      <Point>
        <altitudeMode>absolute</altitudeMode>
        <coordinates>-91.783716,37.948469268511296,337.4593409318226</coordinates>
      </Point>
    </Placemark>
    <Placemark>
      <Style>
        <IconStyle>
          <color>ff0000ff</color>
          <scale>0.6</scale>
          <Icon>
            <href>http://maps.google.com/mapfiles/kml/shapes/placemark_circle.png</href>
          </Icon>
        </IconStyle>
      </Style>
      <Point>
        <altitudeMode>absolute</altitudeMode>
        <coordinates>-91.783716,37.94833680027126,341.0939767108189</coordinates>
      </Point>
    </Placemark>
    <Placemark>
      <Style>
        <IconStyle>
          <color>ff0000ff</color>
          <scale>0.6</scale>
          <Icon>
            <href>http://maps.google.com/mapfiles/kml/shapes/placemark_circle.png</href>
          </Icon>
        </IconStyle>
      </Style>
      <Point>
        <altitudeMode>absolute</altitudeMode>
        <coordinates>-91.783716,37.94821599509092,348.1520164486996</coordinates>
      </Point>
    </Placemark>
    <Placemark>
      <Style>
        <IconStyle>
          <color>ff0000ff</color>
          <scale>0.6</scale>
          <Icon>
            <href>http://maps.google.com/mapfiles/kml/shapes/placemark_circle.png</href>
          </Icon>
        </IconStyle>
      </Style>
      <Point>
        <altitudeMode>absolute</altitudeMode>
        <coordinates>-91.783716,37.94811387372825,358.2232725308299</coordinates>
      </Point>
    </Placemark>
    <Placemark>
      <Style>
        <IconStyle>
          <color>ff0000ff</color>
          <scale>0.6</scale>
          <Icon>
            <href>http://maps.google.com/mapfiles/kml/shapes/placemark_circle.png</href>
          </Icon>
        </IconStyle>
      </Style>
      <Point>
        <altitudeMode>absolute</altitudeMode>
        <coordinates>-91.783716,37.94803637110567,370.72244016124256</coordinates>
      </Point>
    </Placemark>
    <Placemark>
      <Style>
        <IconStyle>
          <color>ff0000ff</color>
          <scale>0.6</scale>
          <Icon>
            <href>http://maps.google.com/mapfiles/kml/shapes/placemark_circle.png</href>
          </Icon>
        </IconStyle>
      </Style>
      <Point>
        <altitudeMode>absolute</altitudeMode>
        <coordinates>-91.783716,37.94798799139387,384.9231131498839</coordinates>
      </Point>
    </Placemark>
    <Placemark>
      <Style>
        <IconStyle>
          <color>ff0000ff</color>
          <scale>0.6</scale>
          <Icon>
            <href>http://maps.google.com/mapfiles/kml/shapes/placemark_circle.png</href>
          </Icon>
        </IconStyle>
      </Style>
      <Point>
        <altitudeMode>absolute</altitudeMode>
        <coordinates>-91.783716,37.94797154624587,400.0</coordinates>
      </Point>
    </Placemark>
    <Placemark>
      <Style>
        <IconStyle>
          <color>ff0000ff</color>
          <scale>0.6</scale>
          <Icon>
            <href>http://maps.google.com/mapfiles/kml/shapes/placemark_circle.png</href>
          </Icon>
        </IconStyle>
      </Style>
      <Point>
        <altitudeMode>absolute</altitudeMode>
        <coordinates>-91.783716,37.94798799139387,415.0768868501161</coordinates>
      </Point>
    </Placemark>
    <Placemark>
      <Style>
        <IconStyle>
          <color>ff0000ff</color>
          <scale>0.6</scale>
          <Icon>
            <href>http://maps.google.com/mapfiles/kml/shapes/placemark_circle.png</href>
          </Icon>
        </IconStyle>
      </Style>
      <Point>
        <altitudeMode>absolute</altitudeMode>
        <coordinates>-91.783716,37.94803637110567,429.2775598387574</coordinates>
      </Point>
    </Placemark>
    <Placemark>
      <Style>
        <IconStyle>
          <color>ff0000ff</color>
          <scale>0.6</scale>
          <Icon>
            <href>http://maps.google.com/mapfiles/kml/shapes/placemark_circle.png</href>
          </Icon>
        </IconStyle>
      </Style>
      <Point>
        <altitudeMode>absolute</altitudeMode>
        <coordinates>-91.783716,37.94811387372825,441.7767274691701</coordinates>
      </Point>
    </Placemark>
    <Placemark>
      <Style>
        <IconStyle>
          <color>ff0000ff</color>
          <scale>0.6</scale>
          <Icon>
            <href>http://maps.google.com/mapfiles/kml/shapes/placemark_circle.png</href>
          </Icon>
        </IconStyle>
      </Style>
      <Point>
        <altitudeMode>absolute</altitudeMode>
        <coordinates>-91.783716,37.94821599509092,451.84798355130033</coordinates>
      </Point>
    </Placemark>
    <Placemark>
      <Style>
        <IconStyle>
          <color>ff0000ff</color>
          <scale>0.6</scale>
          <Icon>
            <href>http://maps.google.com/mapfiles/kml/shapes/placemark_circle.png</href>
          </Icon>
        </IconStyle>
      </Style>
      <Point>
        <altitudeMode>absolute</altitudeMode>
        <coordinates>-91.783716,37.94833680027126,458.9060232891811</coordinates>
      </Point>
    </Placemark>
    <Placemark>
      <Style>
        <IconStyle>
          <color>ff0000ff</color>
          <scale>0.6</scale>
          <Icon>
            <href>http://maps.google.com/mapfiles/kml/shapes/placemark_circle.png</href>
          </Icon>
        </IconStyle>
      </Style>
      <Point>
        <altitudeMode>absolute</altitudeMode>
        <coordinates>-91.783716,37.948469268511296,462.5406590681774</coordinates>
      </Point>
    </Placemark>
    <Placemark>
      <Style>
        <IconStyle>
          <color>ff0000ff</color>
          <scale>0.6</scale>
          <Icon>
            <href>http://maps.google.com/mapfiles/kml/shapes/placemark_circle.png</href>
          </Icon>
        </IconStyle>
      </Style>
      <Point>
        <altitudeMode>absolute</altitudeMode>
        <coordinates>-91.783716,37.94860570123843,462.5406590681774</coordinates>
      </Point>
    </Placemark>
    <Placemark>
      <Style>
        <IconStyle>
          <color>ff0000ff</color>
          <scale>0.6</scale>
          <Icon>
            <href>http://maps.google.com/mapfiles/kml/shapes/placemark_circle.png</href>
          </Icon>
        </IconStyle>
      </Style>
      <Point>
        <altitudeMode>absolute</altitudeMode>
        <coordinates>-91.783716,37.948738169478474,458.9060232891811</coordinates>
      </Point>
    </Placemark>
    <Placemark>
      <Style>
        <IconStyle>
          <color>ff0000ff</color>
          <scale>0.6</scale>
          <Icon>
            <href>http://maps.google.com/mapfiles/kml/shapes/placemark_circle.png</href>
          </Icon>
        </IconStyle>
      </Style>
      <Point>
        <altitudeMode>absolute</altitudeMode>
        <coordinates>-91.783716,37.94885897465881,451.8479835513004</coordinates>
      </Point>
    </Placemark>
    <Placemark>
      <Style>
        <IconStyle>
          <color>ff0000ff</color>
          <scale>0.6</scale>
          <Icon>
            <href>http://maps.google.com/mapfiles/kml/shapes/placemark_circle.png</href>
          </Icon>
        </IconStyle>
      </Style>
      <Point>
        <altitudeMode>absolute</altitudeMode>
        <coordinates>-91.783716,37.94896109602147,441.7767274691701</coordinates>
      </Point>
    </Placemark>
    <Placemark>
      <Style>
        <IconStyle>
          <color>ff0000ff</color>
          <scale>0.6</scale>
          <Icon>
            <href>http://maps.google.com/mapfiles/kml/shapes/placemark_circle.png</href>
          </Icon>
        </IconStyle>
      </Style>
      <Point>
        <altitudeMode>absolute</altitudeMode>
        <coordinates>-91.783716,37.94903859864406,429.2775598387574</coordinates>
      </Point>
    </Placemark>
    <Placemark>
      <Style>
        <IconStyle>
          <color>ff0000ff</color>
          <scale>0.6</scale>
          <Icon>
            <href>http://maps.google.com/mapfiles/kml/shapes/placemark_circle.png</href>
          </Icon>
        </IconStyle>
      </Style>
      <Point>
        <altitudeMode>absolute</altitudeMode>
        <coordinates>-91.783716,37.94908697835585,415.0768868501161</coordinates>
      </Point>
    </Placemark>
    <Placemark>
      <Style>
        <IconStyle>
          <color>ff0000ff</color>
          <scale>0.6</scale>
          <Icon>
            <href>http://maps.google.com/mapfiles/kml/shapes/placemark_circle.png</href>
          </Icon>
        </IconStyle>
      </Style>
      <Point>
        <altitudeMode>absolute</altitudeMode>
        <coordinates>-91.783716,37.94910342350386,400.0</coordinates>
      </Point>
    </Placemark>
    <Placemark>
      <Style>
        <IconStyle>
          <color>ff0000ff</color>
          <scale>0.6</scale>
          <Icon>
            <href>http://maps.google.com/mapfiles/kml/shapes/placemark_circle.png</href>
          </Icon>
        </IconStyle>
      </Style>
      <Point>
        <altitudeMode>absolute</altitudeMode>
        <coordinates>-91.783716,37.94910342350386,400.0</coordinates>
      </Point>
    </Placemark>
    <Placemark>
      <Style>
        <IconStyle>
          <color>ff0000ff</color>
          <scale>0.6</scale>
          <Icon>
            <href>http://maps.google.com/mapfiles/kml/shapes/placemark_circle.png</href>
          </Icon>
        </IconStyle>
      </Style>
      <Point>
        <altitudeMode>absolute</altitudeMode>
        <coordinates>-91.783716,37.94797154624587,400.0</coordinates>
      </Point>
    </Placemark>
    <Placemark>
      <Style>
        <IconStyle>
          <color>ff0000ff</color>
          <scale>0.6</scale>
          <Icon>
            <href>http://maps.google.com/mapfiles/kml/shapes/placemark_circle.png</href>
          </Icon>
        </IconStyle>
      </Style>
      <Point>
        <altitudeMode>absolute</altitudeMode>
        <coordinates>-91.783716,37.94910342350386,400.0</coordinates>
      </Point>
    </Placemark>
    <Placemark>
      <Style>
        <IconStyle>
          <color>ff0000ff</color>
          <scale>0.6</scale>
          <Icon>
            <href>http://maps.google.com/mapfiles/kml/shapes/placemark_circle.png</href>
          </Icon>
        </IconStyle>
      </Style>
      <Point>
        <altitudeMode>absolute</altitudeMode>
        <coordinates>-91.783716,37.94908697835585,384.9231131498839</coordinates>
      </Point>
    </Placemark>
    <Placemark>
      <Style>
        <IconStyle>
          <color>ff0000ff</color>
          <scale>0.6</scale>
          <Icon>
            <href>http://maps.google.com/mapfiles/kml/shapes/placemark_circle.png</href>
          </Icon>
        </IconStyle>
      </Style>
      <Point>
        <altitudeMode>absolute</altitudeMode>
        <coordinates>-91.783716,37.94903859864406,370.72244016124256</coordinates>
      </Point>
    </Placemark>
    <Placemark>
      <Style>
        <IconStyle>
          <color>ff0000ff</color>
          <scale>0.6</scale>
          <Icon>
            <href>http://maps.google.com/mapfiles/kml/shapes/placemark_circle.png</href>
          </Icon>
        </IconStyle>
      </Style>
      <Point>
        <altitudeMode>absolute</altitudeMode>
        <coordinates>-91.783716,37.94896109602147,358.2232725308299</coordinates>
      </Point>
    </Placemark>
    <Placemark>
      <Style>
        <IconStyle>
          <color>ff0000ff</color>
          <scale>0.6</scale>
          <Icon>
            <href>http://maps.google.com/mapfiles/kml/shapes/placemark_circle.png</href>
          </Icon>
        </IconStyle>
      </Style>
      <Point>
        <altitudeMode>absolute</altitudeMode>
        <coordinates>-91.783716,37.94885897465881,348.1520164486996</coordinates>
      </Point>
    </Placemark>
    <Placemark>
      <Style>
        <IconStyle>
          <color>ff0000ff</color>
          <scale>0.6</scale>
          <Icon>
            <href>http://maps.google.com/mapfiles/kml/shapes/placemark_circle.png</href>
          </Icon>
        </IconStyle>
      </Style>
      <Point>
        <altitudeMode>absolute</altitudeMode>
        <coordinates>-91.783716,37.948738169478474,341.0939767108189</coordinates>
      </Point>
    </Placemark>
    <Placemark>
      <Style>
        <IconStyle>
          <color>ff0000ff</color>
          <scale>0.6</scale>
          <Icon>
            <href>http://maps.google.com/mapfiles/kml/shapes/placemark_circle.png</href>
          </Icon>
        </IconStyle>
      </Style>
      <Point>
        <altitudeMode>absolute</altitudeMode>
        <coordinates>-91.783716,37.94860570123843,337.4593409318226</coordinates>
      </Point>
    </Placemark>
    <Placemark>
      <Style>
        <IconStyle>
          <color>ff0000ff</color>
          <scale>0.6</scale>
          <Icon>
            <href>http://maps.google.com/mapfiles/kml/shapes/placemark_circle.png</href>
          </Icon>
        </IconStyle>
      </Style>
      <Point>
        <altitudeMode>absolute</altitudeMode>
        <coordinates>-91.783716,37.948469268511296,337.4593409318226</coordinates>
      </Point>
    </Placemark>
    <Placemark>
      <Style>
        <IconStyle>
          <color>ff0000ff</color>
          <scale>0.6</scale>
          <Icon>
            <href>http://maps.google.com/mapfiles/kml/shapes/placemark_circle.png</href>
          </Icon>
        </IconStyle>
      </Style>
      <Point>
        <altitudeMode>absolute</altitudeMode>
        <coordinates>-91.783716,37.94833680027126,341.0939767108189</coordinates>
      </Point>
    </Placemark>
    <Placemark>
      <Style>
        <IconStyle>
          <color>ff0000ff</color>
          <scale>0.6</scale>
          <Icon>
            <href>http://maps.google.com/mapfiles/kml/shapes/placemark_circle.png</href>
          </Icon>
        </IconStyle>
      </Style>
      <Point>
        <altitudeMode>absolute</altitudeMode>
        <coordinates>-91.783716,37.94821599509092,348.1520164486996</coordinates>
      </Point>
    </Placemark>
    <Placemark>
      <Style>
        <IconStyle>
          <color>ff0000ff</color>
          <scale>0.6</scale>
          <Icon>
            <href>http://maps.google.com/mapfiles/kml/shapes/placemark_circle.png</href>
          </Icon>
        </IconStyle>
      </Style>
      <Point>
        <altitudeMode>absolute</altitudeMode>
        <coordinates>-91.783716,37.94811387372825,358.2232725308299</coordinates>
      </Point>
    </Placemark>
    <Placemark>
      <Style>
        <IconStyle>
          <color>ff0000ff</color>
          <scale>0.6</scale>
          <Icon>
            <href>http://maps.google.com/mapfiles/kml/shapes/placemark_circle.png</href>
          </Icon>
        </IconStyle>
      </Style>
      <Point>
        <altitudeMode>absolute</altitudeMode>
        <coordinates>-91.783716,37.94803637110567,370.72244016124256</coordinates>
      </Point>
    </Placemark>
    <Placemark>
      <Style>
        <IconStyle>
          <color>ff0000ff</color>
          <scale>0.6</scale>
          <Icon>
            <href>http://maps.google.com/mapfiles/kml/shapes/placemark_circle.png</href>
          </Icon>
        </IconStyle>
      </Style>
      <Point>
        <altitudeMode>absolute</altitudeMode>
        <coordinates>-91.783716,37.94798799139387,384.9231131498839</coordinates>
      </Point>
    </Placemark>
    <Placemark>
      <Style>
        <IconStyle>
          <color>ff0000ff</color>
          <scale>0.6</scale>
          <Icon>
            <href>http://maps.google.com/mapfiles/kml/shapes/placemark_circle.png</href>
          </Icon>
        </IconStyle>
      </Style>
      <Point>
        <altitudeMode>absolute</altitudeMode>
        <coordinates>-91.783716,37.94797154624587,400.0</coordinates>
      </Point>
    </Placemark>
    <Placemark>
      <Style>
        <IconStyle>
          <color>ff0000ff</color>
          <scale>0.6</scale>
          <Icon>
            <href>http://maps.google.com/mapfiles/kml/shapes/placemark_circle.png</href>
          </Icon>
        </IconStyle>
      </Style>
      <Point>
        <altitudeMode>absolute</altitudeMode>
        <coordinates>-91.783716,37.94798799139387,415.0768868501161</coordinates>
      </Point>
    </Placemark>
    <Placemark>
      <Style>
        <IconStyle>
          <color>ff0000ff</color>
          <scale>0.6</scale>
          <Icon>
            <href>http://maps.google.com/mapfiles/kml/shapes/placemark_circle.png</href>
          </Icon>
        </IconStyle>
      </Style>
      <Point>
        <altitudeMode>absolute</altitudeMode>
        <coordinates>-91.783716,37.94803637110567,429.2775598387574</coordinates>
      </Point>
    </Placemark>
    <Placemark>
      <Style>
        <IconStyle>
          <color>ff0000ff</color>
          <scale>0.6</scale>
          <Icon>
            <href>http://maps.google.com/mapfiles/kml/shapes/placemark_circle.png</href>
          </Icon>
        </IconStyle>
      </Style>
      <Point>
        <altitudeMode>absolute</altitudeMode>
        <coordinates>-91.783716,37.94811387372825,441.7767274691701</coordinates>
      </Point>
    </Placemark>
    <Placemark>
      <Style>
        <IconStyle>
          <color>ff0000ff</color>
          <scale>0.6</scale>
          <Icon>
            <href>http://maps.google.com/mapfiles/kml/shapes/placemark_circle.png</href>
          </Icon>
        </IconStyle>
      </Style>
      <Point>
        <altitudeMode>absolute</altitudeMode>
        <coordinates>-91.783716,37.94821599509092,451.84798355130033</coordinates>
      </Point>
    </Placemark>
    <Placemark>
      <Style>
        <IconStyle>
          <color>ff0000ff</color>
          <scale>0.6</scale>
          <Icon>
            <href>http://maps.google.com/mapfiles/kml/shapes/placemark_circle.png</href>
          </Icon>
        </IconStyle>
      </Style>
      <Point>
        <altitudeMode>absolute</altitudeMode>
        <coordinates>-91.783716,37.94833680027126,458.9060232891811</coordinates>
      </Point>
    </Placemark>
    <Placemark>
      <Style>
        <IconStyle>
          <color>ff0000ff</color>
          <scale>0.6</scale>
          <Icon>
            <href>http://maps.google.com/mapfiles/kml/shapes/placemark_circle.png</href>
          </Icon>
        </IconStyle>
      </Style>
      <Point>
        <altitudeMode>absolute</altitudeMode>
        <coordinates>-91.783716,37.948469268511296,462.5406590681774</coordinates>
      </Point>
    </Placemark>
    <Placemark>
      <Style>
        <IconStyle>
          <color>ff0000ff</color>
          <scale>0.6</scale>
          <Icon>
            <href>http://maps.google.com/mapfiles/kml/shapes/placemark_circle.png</href>
          </Icon>
        </IconStyle>
      </Style>
      <Point>
        <altitudeMode>absolute</altitudeMode>
        <coordinates>-91.783716,37.94860570123843,462.5406590681774</coordinates>
      </Point>
    </Placemark>
    <Placemark>
      <Style>
        <IconStyle>
          <color>ff0000ff</color>
          <scale>0.6</scale>
          <Icon>
            <href>http://maps.google.com/mapfiles/kml/shapes/placemark_circle.png</href>
          </Icon>
        </IconStyle>
      </Style>
      <Point>
        <altitudeMode>absolute</altitudeMode>
        <coordinates>-91.783716,37.948738169478474,458.9060232891811</coordinates>
      </Point>
    </Placemark>
    <Placemark>
      <Style>
        <IconStyle>
          <color>ff0000ff</color>
          <scale>0.6</scale>
          <Icon>
            <href>http://maps.google.com/mapfiles/kml/shapes/placemark_circle.png</href>
          </Icon>
        </IconStyle>
      </Style>
      <Point>
        <altitudeMode>absolute</altitudeMode>
        <coordinates>-91.783716,37.94885897465881,451.8479835513004</coordinates>
      </Point>
    </Placemark>
    <Placemark>
      <Style>
        <IconStyle>
          <color>ff0000ff</color>
          <scale>0.6</scale>
          <Icon>
            <href>http://maps.google.com/mapfiles/kml/shapes/placemark_circle.png</href>
          </Icon>
        </IconStyle>
      </Style>
      <Point>
        <altitudeMode>absolute</altitudeMode>
        <coordinates>-91.783716,37.94896109602147,441.7767274691701</coordinates>
      </Point>
    </Placemark>
    <Placemark>
      <Style>
        <IconStyle>
          <color>ff0000ff</color>
          <scale>0.6</scale>
          <Icon>
            <href>http://maps.google.com/mapfiles/kml/shapes/placemark_circle.png</href>
          </Icon>
        </IconStyle>
      </Style>
      <Point>
        <altitudeMode>absolute</altitudeMode>
        <coordinates>-91.783716,37.94903859864406,429.2775598387574</coordinates>
      </Point>
    </Placemark>
    <Placemark>
      <Style>
        <IconStyle>
          <color>ff0000ff</color>
          <scale>0.6</scale>
          <Icon>
            <href>http://maps.google.com/mapfiles/kml/shapes/placemark_circle.png</href>
          </Icon>
        </IconStyle>
      </Style>
      <Point>
        <altitudeMode>absolute</altitudeMode>
        <coordinates>-91.783716,37.94908697835585,415.0768868501161</coordinates>
      </Point>
    </Placemark>
    <Placemark>
      <Style>
        <IconStyle>
          <color>ff0000ff</color>
          <scale>0.6</scale>
          <Icon>
            <href>http://maps.google.com/mapfiles/kml/shapes/placemark_circle.png</href>
          </Icon>
        </IconStyle>
      </Style>
      <Point>
        <altitudeMode>absolute</altitudeMode>
        <coordinates>-91.783716,37.94910342350386,400.0</coordinates>
      </Point>
    </Placemark>
  </Document>
</kml>
