<?xml version='1.0' encoding='UTF-8'?>
<kml xmlns='http://www.opengis.net/kml/2.2'>
  <Document>
    <name>knife.kml</name>
    <Placemark>
      <Style>
        <IconStyle>
          <color>ff0000ff</color>
          <scale>0.6</scale>
          <Icon>
            <href>http://maps.google.com/mapfiles/kml/shapes/placemark_circle.png</href>
          </Icon>
        </IconStyle>
      </Style>
      <Point>
        <altitudeMode>absolute</altitudeMode>
        <coordinates>-91.783716,37.94959057903073,351.0444883069437</coordinates>
      </Point>
    </Placemark>
    <Placemark>
      <Style>
        <IconStyle>
          <color>ff0000ff</color>
          <scale>0.6</scale>
          <Icon>
            <href>http://maps.google.com/mapfiles/kml/shapes/placemark_circle.png</href>
          </Icon>
        </IconStyle>
      </Style>
      <Point>
        <altitudeMode>absolute</altitudeMode>
        <coordinates>-91.783716,37.94773045371534,558.1126912282183</coordinates>
      </Point>
    </Placemark>
    <Placemark>
      <Style>
        <IconStyle>
          <color>ff0000ff</color>
          <scale>0.6</scale>
          <Icon>
            <href>http://maps.google.com/mapfiles/kml/shapes/placemark_circle.png</href>
          </Icon>
        </IconStyle>
      </Style>
      <Point>
        <altitudeMode>absolute</altitudeMode>
        <coordinates>-91.783716,37.94959057903073,351.0444883069437</coordinates>
      </Point>
    </Placemark>
    <Placemark>
      <Style>
        <IconStyle>
          <color>ff0000ff</color>
          <scale>0.6</scale>
          <Icon>
            <href>http://maps.google.com/mapfiles/kml/shapes/placemark_circle.png</href>
          </Icon>
        </IconStyle>
      </Style>
      <Point>
        <altitudeMode>absolute</altitudeMode>
        <coordinates>-91.783716,37.94935806336631,376.928013672103</coordinates>
      </Point>
    </Placemark>
    <Placemark>
      <Style>
        <IconStyle>
          <color>ff0000ff</color>
          <scale>0.6</scale>
          <Icon>
            <href>http://maps.google.com/mapfiles/kml/shapes/placemark_circle.png</href>
          </Icon>
        </IconStyle>
      </Style>
      <Point>
        <altitudeMode>absolute</altitudeMode>
        <coordinates>-91.783716,37.94912554770188,402.8115390372624</coordinates>
      </Point>
    </Placemark>
    <Placemark>
      <Style>
        <IconStyle>
          <color>ff0000ff</color>
          <scale>0.6</scale>
          <Icon>
            <href>http://maps.google.com/mapfiles/kml/shapes/placemark_circle.png</href>
          </Icon>
        </IconStyle>
      </Style>
      <Point>
        <altitudeMode>absolute</altitudeMode>
        <coordinates>-91.783716,37.94889303203746,428.69506440242174</coordinates>
      </Point>
    </Placemark>
    <Placemark>
      <Style>
        <IconStyle>
          <color>ff0000ff</color>
          <scale>0.6</scale>
          <Icon>
            <href>http://maps.google.com/mapfiles/kml/shapes/placemark_circle.png</href>
          </Icon>
        </IconStyle>
      </Style>
      <Point>
        <altitudeMode>absolute</altitudeMode>
        <coordinates>-91.783716,37.94866051637304,454.57858976758104</coordinates>
      </Point>
    </Placemark>
    <Placemark>
      <Style>
        <IconStyle>
          <color>ff0000ff</color>
          <scale>0.6</scale>
          <Icon>
            <href>http://maps.google.com/mapfiles/kml/shapes/placemark_circle.png</href>
          </Icon>
        </IconStyle>
      </Style>
      <Point>
        <altitudeMode>absolute</altitudeMode>
        <coordinates>-91.783716,37.94842800070861,480.46211513274034</coordinates>
      </Point>
    </Placemark>
    <Placemark>
      <Style>
        <IconStyle>
          <color>ff0000ff</color>
          <scale>0.6</scale>
          <Icon>
            <href>http://maps.google.com/mapfiles/kml/shapes/placemark_circle.png</href>
          </Icon>
        </IconStyle>
      </Style>
      <Point>
        <altitudeMode>absolute</altitudeMode>
        <coordinates>-91.783716,37.94819548504419,506.3456404978997</coordinates>
      </Point>
    </Placemark>
    <Placemark>
      <Style>
        <IconStyle>
          <color>ff0000ff</color>
          <scale>0.6</scale>
          <Icon>
            <href>http://maps.google.com/mapfiles/kml/shapes/placemark_circle.png</href>
          </Icon>
        </IconStyle>
      </Style>
      <Point>
        <altitudeMode>absolute</altitudeMode>
        <coordinates>-91.783716,37.947962969379766,532.229165863059</coordinates>
      </Point>
    </Placemark>
    <Placemark>
      <Style>
        <IconStyle>
          <color>ff0000ff</color>
          <scale>0.6</scale>
          <Icon>
            <href>http://maps.google.com/mapfiles/kml/shapes/placemark_circle.png</href>
          </Icon>
        </IconStyle>
      </Style>
      <Point>
        <altitudeMode>absolute</altitudeMode>
        <coordinates>-91.783716,37.94773045371534,558.1126912282183</coordinates>
      </Point>
    </Placemark>
    <Placemark>
      <Style>
        <IconStyle>
          <color>ff0000ff</color>
          <scale>0.6</scale>
          <Icon>
            <href>http://maps.google.com/mapfiles/kml/shapes/placemark_circle.png</href>
          </Icon>
        </IconStyle>
      </Style>
      <Point>
        <altitudeMode>absolute</altitudeMode>
        <coordinates>-91.783716,37.94773045371534,558.1126912282183</coordinates>
      </Point>
    </Placemark>
    <Placemark>
      <Style>
        <IconStyle>
          <color>ff0000ff</color>
          <scale>0.6</scale>
          <Icon>
            <href>http://maps.google.com/mapfiles/kml/shapes/placemark_circle.png</href>
          </Icon>
        </IconStyle>
      </Style>
      <Point>
        <altitudeMode>absolute</altitudeMode>
        <coordinates>-91.783716,37.947560083209254,565.9686346931592</coordinates>
      </Point>
    </Placemark>
    <Placemark>
      <Style>
        <IconStyle>
          <color>ff0000ff</color>
          <scale>0.6</scale>
          <Icon>
            <href>http://maps.google.com/mapfiles/kml/shapes/placemark_circle.png</href>
          </Icon>
        </IconStyle>
      </Style>
      <Point>
        <altitudeMode>absolute</altitudeMode>
        <coordinates>-91.783716,37.947560083209254,565.9686346931592</coordinates>
      </Point>
    </Placemark>
    <Placemark>
      <Style>
        <IconStyle>
          <color>ff0000ff</color>
          <scale>0.6</scale>
          <Icon>
            <href>http://maps.google.com/mapfiles/kml/shapes/placemark_circle.png</href>
          </Icon>
        </IconStyle>
      </Style>
      <Point>
        <altitudeMode>absolute</altitudeMode>
        <coordinates>-91.783716,37.94738970658464,558.1126912282183</coordinates>
      </Point>
    </Placemark>
    <Placemark>
      <Style>
        <IconStyle>
          <color>ff0000ff</color>
          <scale>0.6</scale>
          <Icon>
            <href>http://maps.google.com/mapfiles/kml/shapes/placemark_circle.png</href>
          </Icon>
        </IconStyle>
      </Style>
      <Point>
        <altitudeMode>absolute</altitudeMode>
        <coordinates>-91.783716,37.94738970658464,558.1126912282183</coordinates>
      </Point>
    </Placemark>
    <Placemark>
      <Style>
        <IconStyle>
          <color>ff0000ff</color>
          <scale>0.6</scale>
          <Icon>
            <href>http://maps.google.com/mapfiles/kml/shapes/placemark_circle.png</href>
          </Icon>
        </IconStyle>
      </Style>
      <Point>
        <altitudeMode>absolute</altitudeMode>
        <coordinates>-91.783716,37.94738970658464,520.1822563730866</coordinates>
      </Point>
    </Placemark>
    <Placemark>
      <Style>
        <IconStyle>
          <color>ff0000ff</color>
          <scale>0.6</scale>
          <Icon>
            <href>http://maps.google.com/mapfiles/kml/shapes/placemark_circle.png</href>
          </Icon>
        </IconStyle>
      </Style>
      <Point>
        <altitudeMode>absolute</altitudeMode>
        <coordinates>-91.783716,37.94738970658464,558.1126912282183</coordinates>
      </Point>
    </Placemark>
    <Placemark>
      <Style>
        <IconStyle>
          <color>ff0000ff</color>
          <scale>0.6</scale>
          <Icon>
            <href>http://maps.google.com/mapfiles/kml/shapes/placemark_circle.png</href>
          </Icon>
        </IconStyle>
      </Style>
      <Point>
        <altitudeMode>absolute</altitudeMode>
        <coordinates>-91.783716,37.94738970658464,520.1822563730866</coordinates>
      </Point>
    </Placemark>
    <Placemark>
      <Style>
        <IconStyle>
          <color>ff0000ff</color>
          <scale>0.6</scale>
          <Icon>
            <href>http://maps.google.com/mapfiles/kml/shapes/placemark_circle.png</href>
          </Icon>
        </IconStyle>
      </Style>
      <Point>
        <altitudeMode>absolute</altitudeMode>
        <coordinates>-91.783716,37.948195608944445,430.4696160501562</coordinates>
      </Point>
    </Placemark>
    <Placemark>
      <Style>
        <IconStyle>
          <color>ff0000ff</color>
          <scale>0.6</scale>
          <Icon>
            <href>http://maps.google.com/mapfiles/kml/shapes/placemark_circle.png</href>
          </Icon>
        </IconStyle>
      </Style>
      <Point>
        <altitudeMode>absolute</altitudeMode>
        <coordinates>-91.783716,37.94738970658464,520.1822563730866</coordinates>
      </Point>
    </Placemark>
    <Placemark>
      <Style>
        <IconStyle>
          <color>ff0000ff</color>
          <scale>0.6</scale>
          <Icon>
            <href>http://maps.google.com/mapfiles/kml/shapes/placemark_circle.png</href>
          </Icon>
        </IconStyle>
      </Style>
      <Point>
        <altitudeMode>absolute</altitudeMode>
        <coordinates>-91.783716,37.94765834070458,490.2780429321098</coordinates>
      </Point>
    </Placemark>
    <Placemark>
      <Style>
        <IconStyle>
          <color>ff0000ff</color>
          <scale>0.6</scale>
          <Icon>
            <href>http://maps.google.com/mapfiles/kml/shapes/placemark_circle.png</href>
          </Icon>
        </IconStyle>
      </Style>
      <Point>
        <altitudeMode>absolute</altitudeMode>
        <coordinates>-91.783716,37.94792697482451,460.37382949113305</coordinates>
      </Point>
    </Placemark>
    <Placemark>
      <Style>
        <IconStyle>
          <color>ff0000ff</color>
          <scale>0.6</scale>
          <Icon>
            <href>http://maps.google.com/mapfiles/kml/shapes/placemark_circle.png</href>
          </Icon>
        </IconStyle>
      </Style>
      <Point>
        <altitudeMode>absolute</altitudeMode>
        <coordinates>-91.783716,37.948195608944445,430.4696160501562</coordinates>
      </Point>
    </Placemark>
    <Placemark>
      <Style>
        <IconStyle>
          <color>ff0000ff</color>
          <scale>0.6</scale>
          <Icon>
            <href>http://maps.google.com/mapfiles/kml/shapes/placemark_circle.png</href>
          </Icon>
        </IconStyle>
      </Style>
      <Point>
        <altitudeMode>absolute</altitudeMode>
        <coordinates>-91.783716,37.948195608944445,430.4696160501562</coordinates>
      </Point>
    </Placemark>
    <Placemark>
      <Style>
        <IconStyle>
          <color>ff0000ff</color>
          <scale>0.6</scale>
          <Icon>
            <href>http://maps.google.com/mapfiles/kml/shapes/placemark_circle.png</href>
          </Icon>
        </IconStyle>
      </Style>
      <Point>
        <altitudeMode>absolute</altitudeMode>
        <coordinates>-91.783716,37.94782636169462,389.36520022167406</coordinates>
      </Point>
    </Placemark>
    <Placemark>
      <Style>
        <IconStyle>
          <color>ff0000ff</color>
          <scale>0.6</scale>
          <Icon>
            <href>http://maps.google.com/mapfiles/kml/shapes/placemark_circle.png</href>
          </Icon>
        </IconStyle>
      </Style>
      <Point>
        <altitudeMode>absolute</altitudeMode>
        <coordinates>-91.783716,37.948195608944445,430.4696160501562</coordinates>
      </Point>
    </Placemark>
    <Placemark>
      <Style>
        <IconStyle>
          <color>ff0000ff</color>
          <scale>0.6</scale>
          <Icon>
            <href>http://maps.google.com/mapfiles/kml/shapes/placemark_circle.png</href>
          </Icon>
        </IconStyle>
      </Style>
      <Point>
        <altitudeMode>absolute</altitudeMode>
        <coordinates>-91.783716,37.94782636169462,389.36520022167406</coordinates>
      </Point>
    </Placemark>
    <Placemark>
      <Style>
        <IconStyle>
          <color>ff0000ff</color>
          <scale>0.6</scale>
          <Icon>
            <href>http://maps.google.com/mapfiles/kml/shapes/placemark_circle.png</href>
          </Icon>
        </IconStyle>
      </Style>
      <Point>
        <altitudeMode>absolute</altitudeMode>
        <coordinates>-91.783716,37.94782636169462,389.36520022167406</coordinates>
      </Point>
    </Placemark>
    <Placemark>
      <Style>
        <IconStyle>
          <color>ff0000ff</color>
          <scale>0.6</scale>
          <Icon>
            <href>http://maps.google.com/mapfiles/kml/shapes/placemark_circle.png</href>
          </Icon>
        </IconStyle>
      </Style>
      <Point>
        <altitudeMode>absolute</altitudeMode>
        <coordinates>-91.783716,37.94780844051622,384.54905870610304</coordinates>
      </Point>
    </Placemark>
    <Placemark>
      <Style>
        <IconStyle>
          <color>ff0000ff</color>
          <scale>0.6</scale>
          <Icon>
            <href>http://maps.google.com/mapfiles/kml/shapes/placemark_circle.png</href>
          </Icon>
        </IconStyle>
      </Style>
      <Point>
        <altitudeMode>absolute</altitudeMode>
        <coordinates>-91.783716,37.94780844051622,384.54905870610304</coordinates>
      </Point>
    </Placemark>
    <Placemark>
      <Style>
        <IconStyle>
          <color>ff0000ff</color>
          <scale>0.6</scale>
          <Icon>
            <href>http://maps.google.com/mapfiles/kml/shapes/placemark_circle.png</href>
          </Icon>
        </IconStyle>
      </Style>
      <Point>
        <altitudeMode>absolute</altitudeMode>
        <coordinates>-91.783716,37.94782636169462,379.73291719053196</coordinates>
      </Point>
    </Placemark>
    <Placemark>
      <Style>
        <IconStyle>
          <color>ff0000ff</color>
          <scale>0.6</scale>
          <Icon>
            <href>http://maps.google.com/mapfiles/kml/shapes/placemark_circle.png</href>
          </Icon>
        </IconStyle>
      </Style>
      <Point>
        <altitudeMode>absolute</altitudeMode>
        <coordinates>-91.783716,37.94782636169462,379.73291719053196</coordinates>
      </Point>
    </Placemark>
    <Placemark>
      <Style>
        <IconStyle>
          <color>ff0000ff</color>
          <scale>0.6</scale>
          <Icon>
            <href>http://maps.google.com/mapfiles/kml/shapes/placemark_circle.png</href>
          </Icon>
        </IconStyle>
      </Style>
      <Point>
        <altitudeMode>absolute</altitudeMode>
        <coordinates>-91.783716,37.94897058212817,252.359562284025</coordinates>
      </Point>
    </Placemark>
    <Placemark>
      <Style>
        <IconStyle>
          <color>ff0000ff</color>
          <scale>0.6</scale>
          <Icon>
            <href>http://maps.google.com/mapfiles/kml/shapes/placemark_circle.png</href>
          </Icon>
        </IconStyle>
      </Style>
      <Point>
        <altitudeMode>absolute</altitudeMode>
        <coordinates>-91.783716,37.94782636169462,379.73291719053196</coordinates>
      </Point>
    </Placemark>
    <Placemark>
      <Style>
        <IconStyle>
          <color>ff0000ff</color>
          <scale>0.6</scale>
          <Icon>
            <href>http://maps.google.com/mapfiles/kml/shapes/placemark_circle.png</href>
          </Icon>
        </IconStyle>
      </Style>
      <Point>
        <altitudeMode>absolute</altitudeMode>
        <coordinates>-91.783716,37.94805520578132,354.2582462092306</coordinates>
      </Point>
    </Placemark>
    <Placemark>
      <Style>
        <IconStyle>
          <color>ff0000ff</color>
          <scale>0.6</scale>
          <Icon>
            <href>http://maps.google.com/mapfiles/kml/shapes/placemark_circle.png</href>
          </Icon>
        </IconStyle>
      </Style>
      <Point>
        <altitudeMode>absolute</altitudeMode>
        <coordinates>-91.783716,37.948284049868036,328.7835752279292</coordinates>
      </Point>
    </Placemark>
    <Placemark>
      <Style>
        <IconStyle>
          <color>ff0000ff</color>
          <scale>0.6</scale>
          <Icon>
            <href>http://maps.google.com/mapfiles/kml/shapes/placemark_circle.png</href>
          </Icon>
        </IconStyle>
      </Style>
      <Point>
        <altitudeMode>absolute</altitudeMode>
        <coordinates>-91.783716,37.94851289395474,303.3089042466278</coordinates>
      </Point>
    </Placemark>
    <Placemark>
      <Style>
        <IconStyle>
          <color>ff0000ff</color>
          <scale>0.6</scale>
          <Icon>
            <href>http://maps.google.com/mapfiles/kml/shapes/placemark_circle.png</href>
          </Icon>
        </IconStyle>
      </Style>
      <Point>
        <altitudeMode>absolute</altitudeMode>
        <coordinates>-91.783716,37.948741738041456,277.8342332653264</coordinates>
      </Point>
    </Placemark>
    <Placemark>
      <Style>
        <IconStyle>
          <color>ff0000ff</color>
          <scale>0.6</scale>
          <Icon>
            <href>http://maps.google.com/mapfiles/kml/shapes/placemark_circle.png</href>
          </Icon>
        </IconStyle>
      </Style>
      <Point>
        <altitudeMode>absolute</altitudeMode>
        <coordinates>-91.783716,37.94897058212817,252.359562284025</coordinates>
      </Point>
    </Placemark>
    <Placemark>
      <Style>
        <IconStyle>
          <color>ff0000ff</color>
          <scale>0.6</scale>
          <Icon>
            <href>http://maps.google.com/mapfiles/kml/shapes/placemark_circle.png</href>
          </Icon>
        </IconStyle>
      </Style>
      <Point>
        <altitudeMode>absolute</altitudeMode>
        <coordinates>-91.783716,37.94897058212817,252.359562284025</coordinates>
      </Point>
    </Placemark>
    <Placemark>
      <Style>
        <IconStyle>
          <color>ff0000ff</color>
          <scale>0.6</scale>
          <Icon>
            <href>http://maps.google.com/mapfiles/kml/shapes/placemark_circle.png</href>
          </Icon>
        </IconStyle>
      </Style>
      <Point>
        <altitudeMode>absolute</altitudeMode>
        <coordinates>-91.783716,37.949013846263504,250.36458583103285</coordinates>
      </Point>
    </Placemark>
    <Placemark>
      <Style>
        <IconStyle>
          <color>ff0000ff</color>
          <scale>0.6</scale>
          <Icon>
            <href>http://maps.google.com/mapfiles/kml/shapes/placemark_circle.png</href>
          </Icon>
        </IconStyle>
      </Style>
      <Point>
        <altitudeMode>absolute</altitudeMode>
        <coordinates>-91.783716,37.949013846263504,250.36458583103285</coordinates>
      </Point>
    </Placemark>
    <Placemark>
      <Style>
        <IconStyle>
          <color>ff0000ff</color>
          <scale>0.6</scale>
          <Icon>
            <href>http://maps.google.com/mapfiles/kml/shapes/placemark_circle.png</href>
          </Icon>
        </IconStyle>
      </Style>
      <Point>
        <altitudeMode>absolute</altitudeMode>
        <coordinates>-91.783716,37.94905711039885,252.359562284025</coordinates>
      </Point>
    </Placemark>
    <Placemark>
      <Style>
        <IconStyle>
          <color>ff0000ff</color>
          <scale>0.6</scale>
          <Icon>
            <href>http://maps.google.com/mapfiles/kml/shapes/placemark_circle.png</href>
          </Icon>
        </IconStyle>
      </Style>
      <Point>
        <altitudeMode>absolute</altitudeMode>
        <coordinates>-91.783716,37.94905711039885,252.359562284025</coordinates>
      </Point>
    </Placemark>
    <Placemark>
      <Style>
        <IconStyle>
          <color>ff0000ff</color>
          <scale>0.6</scale>
          <Icon>
            <href>http://maps.google.com/mapfiles/kml/shapes/placemark_circle.png</href>
          </Icon>
        </IconStyle>
      </Style>
      <Point>
        <altitudeMode>absolute</altitudeMode>
        <coordinates>-91.783716,37.9495905729122,311.74433762833394</coordinates>
      </Point>
    </Placemark>
    <Placemark>
      <Style>
        <IconStyle>
          <color>ff0000ff</color>
          <scale>0.6</scale>
          <Icon>
            <href>http://maps.google.com/mapfiles/kml/shapes/placemark_circle.png</href>
          </Icon>
        </IconStyle>
      </Style>
      <Point>
        <altitudeMode>absolute</altitudeMode>
        <coordinates>-91.783716,37.94905711039885,252.359562284025</coordinates>
      </Point>
    </Placemark>
    <Placemark>
      <Style>
        <IconStyle>
          <color>ff0000ff</color>
          <scale>0.6</scale>
          <Icon>
            <href>http://maps.google.com/mapfiles/kml/shapes/placemark_circle.png</href>
          </Icon>
        </IconStyle>
      </Style>
      <Point>
        <altitudeMode>absolute</altitudeMode>
        <coordinates>-91.783716,37.94932384165552,282.0519499561795</coordinates>
      </Point>
    </Placemark>
    <Placemark>
      <Style>
        <IconStyle>
          <color>ff0000ff</color>
          <scale>0.6</scale>
          <Icon>
            <href>http://maps.google.com/mapfiles/kml/shapes/placemark_circle.png</href>
          </Icon>
        </IconStyle>
      </Style>
      <Point>
        <altitudeMode>absolute</altitudeMode>
        <coordinates>-91.783716,37.9495905729122,311.74433762833394</coordinates>
      </Point>
    </Placemark>
    <Placemark>
      <Style>
        <IconStyle>
          <color>ff0000ff</color>
          <scale>0.6</scale>
          <Icon>
            <href>http://maps.google.com/mapfiles/kml/shapes/placemark_circle.png</href>
          </Icon>
        </IconStyle>
      </Style>
      <Point>
        <altitudeMode>absolute</altitudeMode>
        <coordinates>-91.783716,37.9495905729122,311.74433762833394</coordinates>
      </Point>
    </Placemark>
    <Placemark>
      <Style>
        <IconStyle>
          <color>ff0000ff</color>
          <scale>0.6</scale>
          <Icon>
            <href>http://maps.google.com/mapfiles/kml/shapes/placemark_circle.png</href>
          </Icon>
        </IconStyle>
      </Style>
      <Point>
        <altitudeMode>absolute</altitudeMode>
        <coordinates>-91.783716,37.94959057903073,351.04448830694366</coordinates>
      </Point>
    </Placemark>
    <Placemark>
      <Style>
        <IconStyle>
          <color>ff0000ff</color>
          <scale>0.6</scale>
          <Icon>
            <href>http://maps.google.com/mapfiles/kml/shapes/placemark_circle.png</href>
          </Icon>
        </IconStyle>
      </Style>
      <Point>
        <altitudeMode>absolute</altitudeMode>
        <coordinates>-91.783716,37.9495905729122,311.74433762833394</coordinates>
      </Point>
    </Placemark>
    <Placemark>
      <Style>
        <IconStyle>
          <color>ff0000ff</color>
          <scale>0.6</scale>
          <Icon>
            <href>http://maps.google.com/mapfiles/kml/shapes/placemark_circle.png</href>
          </Icon>
        </IconStyle>
      </Style>
      <Point>
        <altitudeMode>absolute</altitudeMode>
        <coordinates>-91.783716,37.94959057903073,351.04448830694366</coordinates>
      </Point>
    </Placemark>
    <Placemark>
      <Style>
        <IconStyle>
          <color>ff0000ff</color>
          <scale>0.6</scale>
          <Icon>
            <href>http://maps.google.com/mapfiles/kml/shapes/placemark_circle.png</href>
          </Icon>
        </IconStyle>
      </Style>
      <Point>
        <altitudeMode>absolute</altitudeMode>
        <coordinates>-91.783716,37.94959057903073,351.0444883069437</coordinates>
      </Point>
    </Placemark>
    <Placemark>
      <Style>
        <IconStyle>
          <color>ff0000ff</color>
          <scale>0.6</scale>
          <Icon>
            <href>http://maps.google.com/mapfiles/kml/shapes/placemark_circle.png</href>
          </Icon>
        </IconStyle>
      </Style>
      <Point>
        <altitudeMode>absolute</altitudeMode>
        <coordinates>-91.783716,37.94959057903073,351.04448830694366</coordinates>
      </Point>
    </Placemark>
    <Placemark>
      <Style>
        <IconStyle>
          <color>ff0000ff</color>
          <scale>0.6</scale>
          <Icon>
            <href>http://maps.google.com/mapfiles/kml/shapes/placemark_circle.png</href>
          </Icon>
        </IconStyle>
      </Style>
      <Point>
        <altitudeMode>absolute</altitudeMode>
        <coordinates>-91.783716,37.94959057903073,351.0444883069437</coordinates>
      </Point>
    </Placemark>
    <Placemark>
      <Style>
        <IconStyle>
          <color>ff0000ff</color>
          <scale>0.6</scale>
          <Icon>
            <href>http://maps.google.com/mapfiles/kml/shapes/placemark_circle.png</href>
          </Icon>
        </IconStyle>
      </Style>
      <Point>
        <altitudeMode>absolute</altitudeMode>
        <coordinates>-91.783716,37.94747624097385,529.8138582924319</coordinates>
      </Point>
    </Placemark>
    <Placemark>
      <Style>
        <IconStyle>
          <color>ff0000ff</color>
          <scale>0.6</scale>
          <Icon>
            <href>http://maps.google.com/mapfiles/kml/shapes/placemark_circle.png</href>
          </Icon>
        </IconStyle>
      </Style>
      <Point>
        <altitudeMode>absolute</altitudeMode>
        <coordinates>-91.783716,37.94747624097385,529.8138582924319</coordinates>
      </Point>
    </Placemark>
    <Placemark>
      <Style>
        <IconStyle>
          <color>ff0000ff</color>
          <scale>0.6</scale>
          <Icon>
            <href>http://maps.google.com/mapfiles/kml/shapes/placemark_circle.png</href>
          </Icon>
        </IconStyle>
      </Style>
      <Point>
        <altitudeMode>absolute</altitudeMode>
        <coordinates>-91.783716,37.94747624097385,529.8138582924319</coordinates>
      </Point>
    </Placemark>
    <Placemark>
      <Style>
        <IconStyle>
          <color>ff0000ff</color>
          <scale>0.6</scale>
          <Icon>
            <href>http://maps.google.com/mapfiles/kml/shapes/placemark_circle.png</href>
          </Icon>
        </IconStyle>
      </Style>
      <Point>
        <altitudeMode>absolute</altitudeMode>
        <coordinates>-91.783716,37.94747624097385,529.8138582924319</coordinates>
      </Point>
    </Placemark>
    <Placemark>
      <Style>
        <IconStyle>
          <color>ff0000ff</color>
          <scale>0.6</scale>
          <Icon>
            <href>http://maps.google.com/mapfiles/kml/shapes/placemark_circle.png</href>
          </Icon>
        </IconStyle>
      </Style>
      <Point>
        <altitudeMode>absolute</altitudeMode>
        <coordinates>-91.783716,37.94747624097385,529.8138582924319</coordinates>
      </Point>
    </Placemark>
    <Placemark>
      <Style>
        <IconStyle>
          <color>ff0000ff</color>
          <scale>0.6</scale>
          <Icon>
            <href>http://maps.google.com/mapfiles/kml/shapes/placemark_circle.png</href>
          </Icon>
        </IconStyle>
      </Style>
      <Point>
        <altitudeMode>absolute</altitudeMode>
        <coordinates>-91.783716,37.94747624097385,548.4797270852794</coordinates>
      </Point>
    </Placemark>
    <Placemark>
      <Style>
        <IconStyle>
          <color>ff0000ff</color>
          <scale>0.6</scale>
          <Icon>
            <href>http://maps.google.com/mapfiles/kml/shapes/placemark_circle.png</href>
          </Icon>
        </IconStyle>
      </Style>
      <Point>
        <altitudeMode>absolute</altitudeMode>
        <coordinates>-91.783716,37.94747624097385,548.4797270852794</coordinates>
      </Point>
    </Placemark>
    <Placemark>
      <Style>
        <IconStyle>
          <color>ff0000ff</color>
          <scale>0.6</scale>
          <Icon>
            <href>http://maps.google.com/mapfiles/kml/shapes/placemark_circle.png</href>
          </Icon>
        </IconStyle>
      </Style>
      <Point>
        <altitudeMode>absolute</altitudeMode>
        <coordinates>-91.783716,37.947560083209254,552.3463987560326</coordinates>
      </Point>
    </Placemark>
    <Placemark>
      <Style>
        <IconStyle>
          <color>ff0000ff</color>
          <scale>0.6</scale>
          <Icon>
            <href>http://maps.google.com/mapfiles/kml/shapes/placemark_circle.png</href>
          </Icon>
        </IconStyle>
      </Style>
      <Point>
        <altitudeMode>absolute</altitudeMode>
        <coordinates>-91.783716,37.947560083209254,552.3463987560326</coordinates>
      </Point>
    </Placemark>
    <Placemark>
      <Style>
        <IconStyle>
          <color>ff0000ff</color>
          <scale>0.6</scale>
          <Icon>
            <href>http://maps.google.com/mapfiles/kml/shapes/placemark_circle.png</href>
          </Icon>
        </IconStyle>
      </Style>
      <Point>
        <altitudeMode>absolute</altitudeMode>
        <coordinates>-91.783716,37.94764391932613,548.4804081970763</coordinates>
      </Point>
    </Placemark>
    <Placemark>
      <Style>
        <IconStyle>
          <color>ff0000ff</color>
          <scale>0.6</scale>
          <Icon>
            <href>http://maps.google.com/mapfiles/kml/shapes/placemark_circle.png</href>
          </Icon>
        </IconStyle>
      </Style>
      <Point>
        <altitudeMode>absolute</altitudeMode>
        <coordinates>-91.783716,37.94764391932613,548.4804081970763</coordinates>
      </Point>
    </Placemark>
    <Placemark>
      <Style>
        <IconStyle>
          <color>ff0000ff</color>
          <scale>0.6</scale>
          <Icon>
            <href>http://maps.google.com/mapfiles/kml/shapes/placemark_circle.png</href>
          </Icon>
        </IconStyle>
      </Style>
      <Point>
        <altitudeMode>absolute</altitudeMode>
        <coordinates>-91.783716,37.94844982168594,458.7677678741459</coordinates>
      </Point>
    </Placemark>
    <Placemark>
      <Style>
        <IconStyle>
          <color>ff0000ff</color>
          <scale>0.6</scale>
          <Icon>
            <href>http://maps.google.com/mapfiles/kml/shapes/placemark_circle.png</href>
          </Icon>
        </IconStyle>
      </Style>
      <Point>
        <altitudeMode>absolute</altitudeMode>
        <coordinates>-91.783716,37.94764391932613,548.4804081970763</coordinates>
      </Point>
    </Placemark>
    <Placemark>
      <Style>
        <IconStyle>
          <color>ff0000ff</color>
          <scale>0.6</scale>
          <Icon>
            <href>http://maps.google.com/mapfiles/kml/shapes/placemark_circle.png</href>
          </Icon>
        </IconStyle>
      </Style>
      <Point>
        <altitudeMode>absolute</altitudeMode>
        <coordinates>-91.783716,37.947912553446066,518.5761947560993</coordinates>
      </Point>
    </Placemark>
    <Placemark>
      <Style>
        <IconStyle>
          <color>ff0000ff</color>
          <scale>0.6</scale>
          <Icon>
            <href>http://maps.google.com/mapfiles/kml/shapes/placemark_circle.png</href>
          </Icon>
        </IconStyle>
      </Style>
      <Point>
        <altitudeMode>absolute</altitudeMode>
        <coordinates>-91.783716,37.948181187566,488.6719813151226</coordinates>
      </Point>
    </Placemark>
    <Placemark>
      <Style>
        <IconStyle>
          <color>ff0000ff</color>
          <scale>0.6</scale>
          <Icon>
            <href>http://maps.google.com/mapfiles/kml/shapes/placemark_circle.png</href>
          </Icon>
        </IconStyle>
      </Style>
      <Point>
        <altitudeMode>absolute</altitudeMode>
        <coordinates>-91.783716,37.94844982168594,458.7677678741459</coordinates>
      </Point>
    </Placemark>
    <Placemark>
      <Style>
        <IconStyle>
          <color>ff0000ff</color>
          <scale>0.6</scale>
          <Icon>
            <href>http://maps.google.com/mapfiles/kml/shapes/placemark_circle.png</href>
          </Icon>
        </IconStyle>
      </Style>
      <Point>
        <altitudeMode>absolute</altitudeMode>
        <coordinates>-91.783716,37.94844982168594,458.7677678741459</coordinates>
      </Point>
    </Placemark>
    <Placemark>
      <Style>
        <IconStyle>
          <color>ff0000ff</color>
          <scale>0.6</scale>
          <Icon>
            <href>http://maps.google.com/mapfiles/kml/shapes/placemark_circle.png</href>
          </Icon>
        </IconStyle>
      </Style>
      <Point>
        <altitudeMode>absolute</altitudeMode>
        <coordinates>-91.783716,37.94828213721513,440.1012179695015</coordinates>
      </Point>
    </Placemark>
    <Placemark>
      <Style>
        <IconStyle>
          <color>ff0000ff</color>
          <scale>0.6</scale>
          <Icon>
            <href>http://maps.google.com/mapfiles/kml/shapes/placemark_circle.png</href>
          </Icon>
        </IconStyle>
      </Style>
      <Point>
        <altitudeMode>absolute</altitudeMode>
        <coordinates>-91.783716,37.94844982168594,458.7677678741459</coordinates>
      </Point>
    </Placemark>
    <Placemark>
      <Style>
        <IconStyle>
          <color>ff0000ff</color>
          <scale>0.6</scale>
          <Icon>
            <href>http://maps.google.com/mapfiles/kml/shapes/placemark_circle.png</href>
          </Icon>
        </IconStyle>
      </Style>
      <Point>
        <altitudeMode>absolute</altitudeMode>
        <coordinates>-91.783716,37.94828213721513,440.1012179695015</coordinates>
      </Point>
    </Placemark>
    <Placemark>
      <Style>
        <IconStyle>
          <color>ff0000ff</color>
          <scale>0.6</scale>
          <Icon>
            <href>http://maps.google.com/mapfiles/kml/shapes/placemark_circle.png</href>
          </Icon>
        </IconStyle>
      </Style>
      <Point>
        <altitudeMode>absolute</altitudeMode>
        <coordinates>-91.783716,37.94828213721513,440.1012179695015</coordinates>
      </Point>
    </Placemark>
    <Placemark>
      <Style>
        <IconStyle>
          <color>ff0000ff</color>
          <scale>0.6</scale>
          <Icon>
            <href>http://maps.google.com/mapfiles/kml/shapes/placemark_circle.png</href>
          </Icon>
        </IconStyle>
      </Style>
      <Point>
        <altitudeMode>absolute</altitudeMode>
        <coordinates>-91.783716,37.94747624097385,529.8138582924319</coordinates>
      </Point>
    </Placemark>
    <Placemark>
      <Style>
        <IconStyle>
          <color>ff0000ff</color>
          <scale>0.6</scale>
          <Icon>
            <href>http://maps.google.com/mapfiles/kml/shapes/placemark_circle.png</href>
          </Icon>
        </IconStyle>
      </Style>
      <Point>
        <altitudeMode>absolute</altitudeMode>
        <coordinates>-91.783716,37.94828213721513,440.1012179695015</coordinates>
      </Point>
    </Placemark>
    <Placemark>
      <Style>
        <IconStyle>
          <color>ff0000ff</color>
          <scale>0.6</scale>
          <Icon>
            <href>http://maps.google.com/mapfiles/kml/shapes/placemark_circle.png</href>
          </Icon>
        </IconStyle>
      </Style>
      <Point>
        <altitudeMode>absolute</altitudeMode>
        <coordinates>-91.783716,37.9480135051347,470.0054314104783</coordinates>
      </Point>
    </Placemark>
    <Placemark>
      <Style>
        <IconStyle>
          <color>ff0000ff</color>
          <scale>0.6</scale>
          <Icon>
            <href>http://maps.google.com/mapfiles/kml/shapes/placemark_circle.png</href>
          </Icon>
        </IconStyle>
      </Style>
      <Point>
        <altitudeMode>absolute</altitudeMode>
        <coordinates>-91.783716,37.947744873054276,499.9096448514551</coordinates>
      </Point>
    </Placemark>
    <Placemark>
      <Style>
        <IconStyle>
          <color>ff0000ff</color>
          <scale>0.6</scale>
          <Icon>
            <href>http://maps.google.com/mapfiles/kml/shapes/placemark_circle.png</href>
          </Icon>
        </IconStyle>
      </Style>
      <Point>
        <altitudeMode>absolute</altitudeMode>
        <coordinates>-91.783716,37.94747624097385,529.8138582924319</coordinates>
      </Point>
    </Placemark>
    <Placemark>
      <Style>
        <IconStyle>
          <color>ff0000ff</color>
          <scale>0.6</scale>
          <Icon>
            <href>http://maps.google.com/mapfiles/kml/shapes/placemark_circle.png</href>
          </Icon>
        </IconStyle>
      </Style>
      <Point>
        <altitudeMode>absolute</altitudeMode>
        <coordinates>-91.783716,37.949504050760055,321.3766206594761</coordinates>
      </Point>
    </Placemark>
    <Placemark>
      <Style>
        <IconStyle>
          <color>ff0000ff</color>
          <scale>0.6</scale>
          <Icon>
            <href>http://maps.google.com/mapfiles/kml/shapes/placemark_circle.png</href>
          </Icon>
        </IconStyle>
      </Style>
      <Point>
        <altitudeMode>absolute</altitudeMode>
        <coordinates>-91.783716,37.94901385238204,266.80730571894134</coordinates>
      </Point>
    </Placemark>
    <Placemark>
      <Style>
        <IconStyle>
          <color>ff0000ff</color>
          <scale>0.6</scale>
          <Icon>
            <href>http://maps.google.com/mapfiles/kml/shapes/placemark_circle.png</href>
          </Icon>
        </IconStyle>
      </Style>
      <Point>
        <altitudeMode>absolute</altitudeMode>
        <coordinates>-91.783716,37.949504050760055,321.3766206594761</coordinates>
      </Point>
    </Placemark>
    <Placemark>
      <Style>
        <IconStyle>
          <color>ff0000ff</color>
          <scale>0.6</scale>
          <Icon>
            <href>http://maps.google.com/mapfiles/kml/shapes/placemark_circle.png</href>
          </Icon>
        </IconStyle>
      </Style>
      <Point>
        <altitudeMode>absolute</altitudeMode>
        <coordinates>-91.783716,37.949258951571046,294.09196318920874</coordinates>
      </Point>
    </Placemark>
    <Placemark>
      <Style>
        <IconStyle>
          <color>ff0000ff</color>
          <scale>0.6</scale>
          <Icon>
            <href>http://maps.google.com/mapfiles/kml/shapes/placemark_circle.png</href>
          </Icon>
        </IconStyle>
      </Style>
      <Point>
        <altitudeMode>absolute</altitudeMode>
        <coordinates>-91.783716,37.94901385238204,266.80730571894134</coordinates>
      </Point>
    </Placemark>
    <Placemark>
      <Style>
        <IconStyle>
          <color>ff0000ff</color>
          <scale>0.6</scale>
          <Icon>
            <href>http://maps.google.com/mapfiles/kml/shapes/placemark_circle.png</href>
          </Icon>
        </IconStyle>
      </Style>
      <Point>
        <altitudeMode>absolute</altitudeMode>
        <coordinates>-91.783716,37.94901385238204,266.80730571894134</coordinates>
      </Point>
    </Placemark>
    <Placemark>
      <Style>
        <IconStyle>
          <color>ff0000ff</color>
          <scale>0.6</scale>
          <Icon>
            <href>http://maps.google.com/mapfiles/kml/shapes/placemark_circle.png</href>
          </Icon>
        </IconStyle>
      </Style>
      <Point>
        <altitudeMode>absolute</altitudeMode>
        <coordinates>-91.783716,37.947956160219164,384.5483775943062</coordinates>
      </Point>
    </Placemark>
    <Placemark>
      <Style>
        <IconStyle>
          <color>ff0000ff</color>
          <scale>0.6</scale>
          <Icon>
            <href>http://maps.google.com/mapfiles/kml/shapes/placemark_circle.png</href>
          </Icon>
        </IconStyle>
      </Style>
      <Point>
        <altitudeMode>absolute</altitudeMode>
        <coordinates>-91.783716,37.94901385238204,266.80730571894134</coordinates>
      </Point>
    </Placemark>
    <Placemark>
      <Style>
        <IconStyle>
          <color>ff0000ff</color>
          <scale>0.6</scale>
          <Icon>
            <href>http://maps.google.com/mapfiles/kml/shapes/placemark_circle.png</href>
          </Icon>
        </IconStyle>
      </Style>
      <Point>
        <altitudeMode>absolute</altitudeMode>
        <coordinates>-91.783716,37.94874942934132,296.2425736877825</coordinates>
      </Point>
    </Placemark>
    <Placemark>
      <Style>
        <IconStyle>
          <color>ff0000ff</color>
          <scale>0.6</scale>
          <Icon>
            <href>http://maps.google.com/mapfiles/kml/shapes/placemark_circle.png</href>
          </Icon>
        </IconStyle>
      </Style>
      <Point>
        <altitudeMode>absolute</altitudeMode>
        <coordinates>-91.783716,37.9484850063006,325.6778416566238</coordinates>
      </Point>
    </Placemark>
    <Placemark>
      <Style>
        <IconStyle>
          <color>ff0000ff</color>
          <scale>0.6</scale>
          <Icon>
            <href>http://maps.google.com/mapfiles/kml/shapes/placemark_circle.png</href>
          </Icon>
        </IconStyle>
      </Style>
      <Point>
        <altitudeMode>absolute</altitudeMode>
        <coordinates>-91.783716,37.94822058325988,355.11310962546503</coordinates>
      </Point>
    </Placemark>
    <Placemark>
      <Style>
        <IconStyle>
          <color>ff0000ff</color>
          <scale>0.6</scale>
          <Icon>
            <href>http://maps.google.com/mapfiles/kml/shapes/placemark_circle.png</href>
          </Icon>
        </IconStyle>
      </Style>
      <Point>
        <altitudeMode>absolute</altitudeMode>
        <coordinates>-91.783716,37.947956160219164,384.5483775943062</coordinates>
      </Point>
    </Placemark>
    <Placemark>
      <Style>
        <IconStyle>
          <color>ff0000ff</color>
          <scale>0.6</scale>
          <Icon>
            <href>http://maps.google.com/mapfiles/kml/shapes/placemark_circle.png</href>
          </Icon>
        </IconStyle>
      </Style>
      <Point>
        <altitudeMode>absolute</altitudeMode>
        <coordinates>-91.783716,37.947956160219164,384.5483775943062</coordinates>
      </Point>
    </Placemark>
    <Placemark>
      <Style>
        <IconStyle>
          <color>ff0000ff</color>
          <scale>0.6</scale>
          <Icon>
            <href>http://maps.google.com/mapfiles/kml/shapes/placemark_circle.png</href>
          </Icon>
        </IconStyle>
      </Style>
      <Point>
        <altitudeMode>absolute</altitudeMode>
        <coordinates>-91.783716,37.94853634995662,449.13480373120694</coordinates>
      </Point>
    </Placemark>
    <Placemark>
      <Style>
        <IconStyle>
          <color>ff0000ff</color>
          <scale>0.6</scale>
          <Icon>
            <href>http://maps.google.com/mapfiles/kml/shapes/placemark_circle.png</href>
          </Icon>
        </IconStyle>
      </Style>
      <Point>
        <altitudeMode>absolute</altitudeMode>
        <coordinates>-91.783716,37.947956160219164,384.5483775943062</coordinates>
      </Point>
    </Placemark>
    <Placemark>
      <Style>
        <IconStyle>
          <color>ff0000ff</color>
          <scale>0.6</scale>
          <Icon>
            <href>http://maps.google.com/mapfiles/kml/shapes/placemark_circle.png</href>
          </Icon>
        </IconStyle>
      </Style>
      <Point>
        <altitudeMode>absolute</altitudeMode>
        <coordinates>-91.783716,37.94824625508789,416.8415906627566</coordinates>
      </Point>
    </Placemark>
    <Placemark>
      <Style>
        <IconStyle>
          <color>ff0000ff</color>
          <scale>0.6</scale>
          <Icon>
            <href>http://maps.google.com/mapfiles/kml/shapes/placemark_circle.png</href>
          </Icon>
        </IconStyle>
      </Style>
      <Point>
        <altitudeMode>absolute</altitudeMode>
        <coordinates>-91.783716,37.94853634995662,449.13480373120694</coordinates>
      </Point>
    </Placemark>
    <Placemark>
      <Style>
        <IconStyle>
          <color>ff0000ff</color>
          <scale>0.6</scale>
          <Icon>
            <href>http://maps.google.com/mapfiles/kml/shapes/placemark_circle.png</href>
          </Icon>
        </IconStyle>
      </Style>
      <Point>
        <altitudeMode>absolute</altitudeMode>
        <coordinates>-91.783716,37.94853634995662,449.13480373120694</coordinates>
      </Point>
    </Placemark>
    <Placemark>
      <Style>
        <IconStyle>
          <color>ff0000ff</color>
          <scale>0.6</scale>
          <Icon>
            <href>http://maps.google.com/mapfiles/kml/shapes/placemark_circle.png</href>
          </Icon>
        </IconStyle>
      </Style>
      <Point>
        <altitudeMode>absolute</altitudeMode>
        <coordinates>-91.783716,37.94950404464152,341.41152416400485</coordinates>
      </Point>
    </Placemark>
    <Placemark>
      <Style>
        <IconStyle>
          <color>ff0000ff</color>
          <scale>0.6</scale>
          <Icon>
            <href>http://maps.google.com/mapfiles/kml/shapes/placemark_circle.png</href>
          </Icon>
        </IconStyle>
      </Style>
      <Point>
        <altitudeMode>absolute</altitudeMode>
        <coordinates>-91.783716,37.94853634995662,449.13480373120694</coordinates>
      </Point>
    </Placemark>
    <Placemark>
      <Style>
        <IconStyle>
          <color>ff0000ff</color>
          <scale>0.6</scale>
          <Icon>
            <href>http://maps.google.com/mapfiles/kml/shapes/placemark_circle.png</href>
          </Icon>
        </IconStyle>
      </Style>
      <Point>
        <altitudeMode>absolute</altitudeMode>
        <coordinates>-91.783716,37.948778273627845,422.2039838394064</coordinates>
      </Point>
    </Placemark>
    <Placemark>
      <Style>
        <IconStyle>
          <color>ff0000ff</color>
          <scale>0.6</scale>
          <Icon>
            <href>http://maps.google.com/mapfiles/kml/shapes/placemark_circle.png</href>
          </Icon>
        </IconStyle>
      </Style>
      <Point>
        <altitudeMode>absolute</altitudeMode>
        <coordinates>-91.783716,37.94902019729907,395.2731639476059</coordinates>
      </Point>
    </Placemark>
    <Placemark>
      <Style>
        <IconStyle>
          <color>ff0000ff</color>
          <scale>0.6</scale>
          <Icon>
            <href>http://maps.google.com/mapfiles/kml/shapes/placemark_circle.png</href>
          </Icon>
        </IconStyle>
      </Style>
      <Point>
        <altitudeMode>absolute</altitudeMode>
        <coordinates>-91.783716,37.949262120970296,368.34234405580537</coordinates>
      </Point>
    </Placemark>
    <Placemark>
      <Style>
        <IconStyle>
          <color>ff0000ff</color>
          <scale>0.6</scale>
          <Icon>
            <href>http://maps.google.com/mapfiles/kml/shapes/placemark_circle.png</href>
          </Icon>
        </IconStyle>
      </Style>
      <Point>
        <altitudeMode>absolute</altitudeMode>
        <coordinates>-91.783716,37.94950404464152,341.41152416400485</coordinates>
      </Point>
    </Placemark>
    <Placemark>
      <Style>
        <IconStyle>
          <color>ff0000ff</color>
          <scale>0.6</scale>
          <Icon>
            <href>http://maps.google.com/mapfiles/kml/shapes/placemark_circle.png</href>
          </Icon>
        </IconStyle>
      </Style>
      <Point>
        <altitudeMode>absolute</altitudeMode>
        <coordinates>-91.783716,37.94950404464152,341.41152416400485</coordinates>
      </Point>
    </Placemark>
    <Placemark>
      <Style>
        <IconStyle>
          <color>ff0000ff</color>
          <scale>0.6</scale>
          <Icon>
            <href>http://maps.google.com/mapfiles/kml/shapes/placemark_circle.png</href>
          </Icon>
        </IconStyle>
      </Style>
      <Point>
        <altitudeMode>absolute</altitudeMode>
        <coordinates>-91.783716,37.949504050760055,321.37662065947615</coordinates>
      </Point>
    </Placemark>
    <Placemark>
      <Style>
        <IconStyle>
          <color>ff0000ff</color>
          <scale>0.6</scale>
          <Icon>
            <href>http://maps.google.com/mapfiles/kml/shapes/placemark_circle.png</href>
          </Icon>
        </IconStyle>
      </Style>
      <Point>
        <altitudeMode>absolute</altitudeMode>
        <coordinates>-91.783716,37.949504050760055,321.37662065947615</coordinates>
      </Point>
    </Placemark>
    <Placemark>
      <Style>
        <IconStyle>
          <color>ff0000ff</color>
          <scale>0.6</scale>
          <Icon>
            <href>http://maps.google.com/mapfiles/kml/shapes/placemark_circle.png</href>
          </Icon>
        </IconStyle>
      </Style>
      <Point>
        <altitudeMode>absolute</altitudeMode>
        <coordinates>-91.783716,37.949504050760055,321.3766206594761</coordinates>
      </Point>
    </Placemark>
    <Placemark>
      <Style>
        <IconStyle>
          <color>ff0000ff</color>
          <scale>0.6</scale>
          <Icon>
            <href>http://maps.google.com/mapfiles/kml/shapes/placemark_circle.png</href>
          </Icon>
        </IconStyle>
      </Style>
      <Point>
        <altitudeMode>absolute</altitudeMode>
        <coordinates>-91.783716,37.949504050760055,321.37662065947615</coordinates>
      </Point>
    </Placemark>
    <Placemark>
      <Style>
        <IconStyle>
          <color>ff0000ff</color>
          <scale>0.6</scale>
          <Icon>
            <href>http://maps.google.com/mapfiles/kml/shapes/placemark_circle.png</href>
          </Icon>
        </IconStyle>
      </Style>
      <Point>
        <altitudeMode>absolute</altitudeMode>
        <coordinates>-91.783716,37.949504050760055,321.3766206594761</coordinates>
      </Point>
    </Placemark>
    <Placemark>
      <Style>
        <IconStyle>
          <color>ff0000ff</color>
          <scale>0.6</scale>
          <Icon>
            <href>http://maps.google.com/mapfiles/kml/shapes/placemark_circle.png</href>
          </Icon>
        </IconStyle>
      </Style>
      <Point>
        <altitudeMode>absolute</altitudeMode>
        <coordinates>-91.783716,37.94933438388508,337.08646425396716</coordinates>
      </Point>
    </Placemark>
    <Placemark>
      <Style>
        <IconStyle>
          <color>ff0000ff</color>
          <scale>0.6</scale>
          <Icon>
            <href>http://maps.google.com/mapfiles/kml/shapes/placemark_circle.png</href>
          </Icon>
        </IconStyle>
      </Style>
      <Point>
        <altitudeMode>absolute</altitudeMode>
        <coordinates>-91.783716,37.949291131986804,335.0908066891781</coordinates>
      </Point>
    </Placemark>
    <Placemark>
      <Style>
        <IconStyle>
          <color>ff0000ff</color>
          <scale>0.6</scale>
          <Icon>
            <href>http://maps.google.com/mapfiles/kml/shapes/placemark_circle.png</href>
          </Icon>
        </IconStyle>
      </Style>
      <Point>
        <altitudeMode>absolute</altitudeMode>
        <coordinates>-91.783716,37.949291131986804,335.0908066891781</coordinates>
      </Point>
    </Placemark>
    <Placemark>
      <Style>
        <IconStyle>
          <color>ff0000ff</color>
          <scale>0.6</scale>
          <Icon>
            <href>http://maps.google.com/mapfiles/kml/shapes/placemark_circle.png</href>
          </Icon>
        </IconStyle>
      </Style>
      <Point>
        <altitudeMode>absolute</altitudeMode>
        <coordinates>-91.783716,37.94927319857135,330.27534628540394</coordinates>
      </Point>
    </Placemark>
    <Placemark>
      <Style>
        <IconStyle>
          <color>ff0000ff</color>
          <scale>0.6</scale>
          <Icon>
            <href>http://maps.google.com/mapfiles/kml/shapes/placemark_circle.png</href>
          </Icon>
        </IconStyle>
      </Style>
      <Point>
        <altitudeMode>absolute</altitudeMode>
        <coordinates>-91.783716,37.94927319857135,330.27534628540394</coordinates>
      </Point>
    </Placemark>
    <Placemark>
      <Style>
        <IconStyle>
          <color>ff0000ff</color>
          <scale>0.6</scale>
          <Icon>
            <href>http://maps.google.com/mapfiles/kml/shapes/placemark_circle.png</href>
          </Icon>
        </IconStyle>
      </Style>
      <Point>
        <altitudeMode>absolute</altitudeMode>
        <coordinates>-91.783716,37.949291131986804,325.45988588162976</coordinates>
      </Point>
    </Placemark>
    <Placemark>
      <Style>
        <IconStyle>
          <color>ff0000ff</color>
          <scale>0.6</scale>
          <Icon>
            <href>http://maps.google.com/mapfiles/kml/shapes/placemark_circle.png</href>
          </Icon>
        </IconStyle>
      </Style>
      <Point>
        <altitudeMode>absolute</altitudeMode>
        <coordinates>-91.783716,37.949291131986804,325.45988588162976</coordinates>
      </Point>
    </Placemark>
    <Placemark>
      <Style>
        <IconStyle>
          <color>ff0000ff</color>
          <scale>0.6</scale>
          <Icon>
            <href>http://maps.google.com/mapfiles/kml/shapes/placemark_circle.png</href>
          </Icon>
        </IconStyle>
      </Style>
      <Point>
        <altitudeMode>absolute</altitudeMode>
        <coordinates>-91.783716,37.94933438388508,323.4642283168407</coordinates>
      </Point>
    </Placemark>
    <Placemark>
      <Style>
        <IconStyle>
          <color>ff0000ff</color>
          <scale>0.6</scale>
          <Icon>
            <href>http://maps.google.com/mapfiles/kml/shapes/placemark_circle.png</href>
          </Icon>
        </IconStyle>
      </Style>
      <Point>
        <altitudeMode>absolute</altitudeMode>
        <coordinates>-91.783716,37.94933438388508,323.4642283168407</coordinates>
      </Point>
    </Placemark>
    <Placemark>
      <Style>
        <IconStyle>
          <color>ff0000ff</color>
          <scale>0.6</scale>
          <Icon>
            <href>http://maps.google.com/mapfiles/kml/shapes/placemark_circle.png</href>
          </Icon>
        </IconStyle>
      </Style>
      <Point>
        <altitudeMode>absolute</altitudeMode>
        <coordinates>-91.783716,37.94937764190189,325.45988588162976</coordinates>
      </Point>
    </Placemark>
    <Placemark>
      <Style>
        <IconStyle>
          <color>ff0000ff</color>
          <scale>0.6</scale>
          <Icon>
            <href>http://maps.google.com/mapfiles/kml/shapes/placemark_circle.png</href>
          </Icon>
        </IconStyle>
      </Style>
      <Point>
        <altitudeMode>absolute</altitudeMode>
        <coordinates>-91.783716,37.94937764190189,325.45988588162976</coordinates>
      </Point>
    </Placemark>
    <Placemark>
      <Style>
        <IconStyle>
          <color>ff0000ff</color>
          <scale>0.6</scale>
          <Icon>
            <href>http://maps.google.com/mapfiles/kml/shapes/placemark_circle.png</href>
          </Icon>
        </IconStyle>
      </Style>
      <Point>
        <altitudeMode>absolute</altitudeMode>
        <coordinates>-91.783716,37.94939556919881,330.27534628540394</coordinates>
      </Point>
    </Placemark>
    <Placemark>
      <Style>
        <IconStyle>
          <color>ff0000ff</color>
          <scale>0.6</scale>
          <Icon>
            <href>http://maps.google.com/mapfiles/kml/shapes/placemark_circle.png</href>
          </Icon>
        </IconStyle>
      </Style>
      <Point>
        <altitudeMode>absolute</altitudeMode>
        <coordinates>-91.783716,37.94939556919881,330.27534628540394</coordinates>
      </Point>
    </Placemark>
    <Placemark>
      <Style>
        <IconStyle>
          <color>ff0000ff</color>
          <scale>0.6</scale>
          <Icon>
            <href>http://maps.google.com/mapfiles/kml/shapes/placemark_circle.png</href>
          </Icon>
        </IconStyle>
      </Style>
      <Point>
        <altitudeMode>absolute</altitudeMode>
        <coordinates>-91.783716,37.94937764190189,335.0908066891781</coordinates>
      </Point>
    </Placemark>
    <Placemark>
      <Style>
        <IconStyle>
          <color>ff0000ff</color>
          <scale>0.6</scale>
          <Icon>
            <href>http://maps.google.com/mapfiles/kml/shapes/placemark_circle.png</href>
          </Icon>
        </IconStyle>
      </Style>
      <Point>
        <altitudeMode>absolute</altitudeMode>
        <coordinates>-91.783716,37.94937764190189,335.0908066891781</coordinates>
      </Point>
    </Placemark>
    <Placemark>
      <Style>
        <IconStyle>
          <color>ff0000ff</color>
          <scale>0.6</scale>
          <Icon>
            <href>http://maps.google.com/mapfiles/kml/shapes/placemark_circle.png</href>
          </Icon>
        </IconStyle>
      </Style>
      <Point>
        <altitudeMode>absolute</altitudeMode>
        <coordinates>-91.783716,37.94933438388508,337.08646425396716</coordinates>
      </Point>
    </Placemark>
  </Document>
</kml>
