<?xml version='1.0' encoding='UTF-8'?>
<kml xmlns='http://www.opengis.net/kml/2.2'>
  <Document>
    <name>reduced_circle.kml</name>
    <Placemark>
      <Style>
        <IconStyle>
          <color>ff0000ff</color>
          <scale>0.6</scale>
          <Icon>
            <href>http://maps.google.com/mapfiles/kml/shapes/placemark_circle.png</href>
          </Icon>
        </IconStyle>
      </Style>
      <Point>
        <altitudeMode>absolute</altitudeMode>
        <coordinates>-91.783716,37.948183436061576,403.3373232290766</coordinates>
      </Point>
    </Placemark>
    <Placemark>
      <Style>
        <IconStyle>
          <color>ff0000ff</color>
          <scale>0.6</scale>
          <Icon>
            <href>http://maps.google.com/mapfiles/kml/shapes/placemark_circle.png</href>
          </Icon>
        </IconStyle>
      </Style>
      <Point>
        <altitudeMode>absolute</altitudeMode>
        <coordinates>-91.783716,37.949077829832945,334.6136293916986</coordinates>
      </Point>
    </Placemark>
    <Placemark>
      <Style>
        <IconStyle>
          <color>ff0000ff</color>
          <scale>0.6</scale>
          <Icon>
            <href>http://maps.google.com/mapfiles/kml/shapes/placemark_circle.png</href>
          </Icon>
        </IconStyle>
      </Style>
      <Point>
        <altitudeMode>absolute</altitudeMode>
        <coordinates>-91.783716,37.94820262206758,385.74762190394114</coordinates>
      </Point>
    </Placemark>
    <Placemark>
      <Style>
        <IconStyle>
          <color>ff0000ff</color>
          <scale>0.6</scale>
          <Icon>
            <href>http://maps.google.com/mapfiles/kml/shapes/placemark_circle.png</href>
          </Icon>
        </IconStyle>
      </Style>
      <Point>
        <altitudeMode>absolute</altitudeMode>
        <coordinates>-91.783716,37.94876411203791,476.30142547528357</coordinates>
      </Point>
    </Placemark>
  </Document>
</kml>
