<?xml version='1.0' encoding='UTF-8'?>
<kml xmlns='http://www.opengis.net/kml/2.2'>
  <Document>
    <name>reduced_balloons.kml</name>
    <Placemark>
      <Style>
        <IconStyle>
          <color>ff0000ff</color>
          <scale>0.6</scale>
          <Icon>
            <href>http://maps.google.com/mapfiles/kml/shapes/placemark_circle.png</href>
          </Icon>
        </IconStyle>
      </Style>
      <Point>
        <altitudeMode>absolute</altitudeMode>
        <coordinates>-91.783716,37.947992205485676,363.9957131655093</coordinates>
      </Point>
    </Placemark>
    <Placemark>
      <Style>
        <IconStyle>
          <color>ff0000ff</color>
          <scale>0.6</scale>
          <Icon>
            <href>http://maps.google.com/mapfiles/kml/shapes/placemark_circle.png</href>
          </Icon>
        </IconStyle>
      </Style>
      <Point>
        <altitudeMode>absolute</altitudeMode>
        <coordinates>-91.783716,37.94756799405906,322.8657131655093</coordinates>
      </Point>
    </Placemark>
    <Placemark>
      <Style>
        <IconStyle>
          <color>ff0000ff</color>
          <scale>0.6</scale>
          <Icon>
            <href>http://maps.google.com/mapfiles/kml/shapes/placemark_circle.png</href>
          </Icon>
        </IconStyle>
      </Style>
      <Point>
        <altitudeMode>absolute</altitudeMode>
        <coordinates>-91.783716,37.9470107151894,381.3237131655093</coordinates>
      </Point>
    </Placemark>
    <Placemark>
      <Style>
        <IconStyle>
          <color>ff0000ff</color>
          <scale>0.6</scale>
          <Icon>
            <href>http://maps.google.com/mapfiles/kml/shapes/placemark_circle.png</href>
          </Icon>
        </IconStyle>
      </Style>
      <Point>
        <altitudeMode>absolute</altitudeMode>
        <coordinates>-91.783716,37.94671378605539,459.93471316550927</coordinates>
      </Point>
    </Placemark>
    <Placemark>
      <Style>
        <IconStyle>
          <color>ff0000ff</color>
          <scale>0.6</scale>
          <Icon>
            <href>http://maps.google.com/mapfiles/kml/shapes/placemark_circle.png</href>
          </Icon>
        </IconStyle>
      </Style>
      <Point>
        <altitudeMode>absolute</altitudeMode>
        <coordinates>-91.783716,37.946914908741455,521.3987131655092</coordinates>
      </Point>
    </Placemark>
    <Placemark>
      <Style>
        <IconStyle>
          <color>ff0000ff</color>
          <scale>0.6</scale>
          <Icon>
            <href>http://maps.google.com/mapfiles/kml/shapes/placemark_circle.png</href>
          </Icon>
        </IconStyle>
      </Style>
      <Point>
        <altitudeMode>absolute</altitudeMode>
        <coordinates>-91.783716,37.94748045323462,562.3367131655093</coordinates>
      </Point>
    </Placemark>
    <Placemark>
      <Style>
        <IconStyle>
          <color>ff0000ff</color>
          <scale>0.6</scale>
          <Icon>
            <href>http://maps.google.com/mapfiles/kml/shapes/placemark_circle.png</href>
          </Icon>
        </IconStyle>
      </Style>
      <Point>
        <altitudeMode>absolute</altitudeMode>
        <coordinates>-91.783716,37.94740282981092,568.4887131655092</coordinates>
      </Point>
    </Placemark>
    <Placemark>
      <Style>
        <IconStyle>
          <color>ff0000ff</color>
          <scale>0.6</scale>
          <Icon>
            <href>http://maps.google.com/mapfiles/kml/shapes/placemark_circle.png</href>
          </Icon>
        </IconStyle>
      </Style>
      <Point>
        <altitudeMode>absolute</altitudeMode>
        <coordinates>-91.783716,37.94681560110969,531.3807131655093</coordinates>
      </Point>
    </Placemark>
    <Placemark>
      <Style>
        <IconStyle>
          <color>ff0000ff</color>
          <scale>0.6</scale>
          <Icon>
            <href>http://maps.google.com/mapfiles/kml/shapes/placemark_circle.png</href>
          </Icon>
        </IconStyle>
      </Style>
      <Point>
        <altitudeMode>absolute</altitudeMode>
        <coordinates>-91.783716,37.94690448940705,372.0967131655093</coordinates>
      </Point>
    </Placemark>
    <Placemark>
      <Style>
        <IconStyle>
          <color>ff0000ff</color>
          <scale>0.6</scale>
          <Icon>
            <href>http://maps.google.com/mapfiles/kml/shapes/placemark_circle.png</href>
          </Icon>
        </IconStyle>
      </Style>
      <Point>
        <altitudeMode>absolute</altitudeMode>
        <coordinates>-91.783716,37.94747724624906,311.6437131655093</coordinates>
      </Point>
    </Placemark>
    <Placemark>
      <Style>
        <IconStyle>
          <color>ff0000ff</color>
          <scale>0.6</scale>
          <Icon>
            <href>http://maps.google.com/mapfiles/kml/shapes/placemark_circle.png</href>
          </Icon>
        </IconStyle>
      </Style>
      <Point>
        <altitudeMode>absolute</altitudeMode>
        <coordinates>-91.783716,37.947381970930024,294.2987131655093</coordinates>
      </Point>
    </Placemark>
    <Placemark>
      <Style>
        <IconStyle>
          <color>ff0000ff</color>
          <scale>0.6</scale>
          <Icon>
            <href>http://maps.google.com/mapfiles/kml/shapes/placemark_circle.png</href>
          </Icon>
        </IconStyle>
      </Style>
      <Point>
        <altitudeMode>absolute</altitudeMode>
        <coordinates>-91.783716,37.947380677356016,286.7177131655093</coordinates>
      </Point>
    </Placemark>
    <Placemark>
      <Style>
        <IconStyle>
          <color>ff0000ff</color>
          <scale>0.6</scale>
          <Icon>
            <href>http://maps.google.com/mapfiles/kml/shapes/placemark_circle.png</href>
          </Icon>
        </IconStyle>
      </Style>
      <Point>
        <altitudeMode>absolute</altitudeMode>
        <coordinates>-91.783716,37.947500647362205,282.8857131655093</coordinates>
      </Point>
    </Placemark>
    <Placemark>
      <Style>
        <IconStyle>
          <color>ff0000ff</color>
          <scale>0.6</scale>
          <Icon>
            <href>http://maps.google.com/mapfiles/kml/shapes/placemark_circle.png</href>
          </Icon>
        </IconStyle>
      </Style>
      <Point>
        <altitudeMode>absolute</altitudeMode>
        <coordinates>-91.783716,37.947500647362205,176.21271316550926</coordinates>
      </Point>
    </Placemark>
    <Placemark>
      <Style>
        <IconStyle>
          <color>ff0000ff</color>
          <scale>0.6</scale>
          <Icon>
            <href>http://maps.google.com/mapfiles/kml/shapes/placemark_circle.png</href>
          </Icon>
        </IconStyle>
      </Style>
      <Point>
        <altitudeMode>absolute</altitudeMode>
        <coordinates>-91.783716,37.947500647362205,229.54921316550926</coordinates>
      </Point>
    </Placemark>
    <Placemark>
      <Style>
        <IconStyle>
          <color>ff0000ff</color>
          <scale>0.6</scale>
          <Icon>
            <href>http://maps.google.com/mapfiles/kml/shapes/placemark_circle.png</href>
          </Icon>
        </IconStyle>
      </Style>
      <Point>
        <altitudeMode>absolute</altitudeMode>
        <coordinates>-91.783716,37.947568021008514,168.71271316550926</coordinates>
      </Point>
    </Placemark>
    <Placemark>
      <Style>
        <IconStyle>
          <color>ff0000ff</color>
          <scale>0.6</scale>
          <Icon>
            <href>http://maps.google.com/mapfiles/kml/shapes/placemark_circle.png</href>
          </Icon>
        </IconStyle>
      </Style>
      <Point>
        <altitudeMode>absolute</altitudeMode>
        <coordinates>-91.783716,37.947635394654824,282.8857131655093</coordinates>
      </Point>
    </Placemark>
    <Placemark>
      <Style>
        <IconStyle>
          <color>ff0000ff</color>
          <scale>0.6</scale>
          <Icon>
            <href>http://maps.google.com/mapfiles/kml/shapes/placemark_circle.png</href>
          </Icon>
        </IconStyle>
      </Style>
      <Point>
        <altitudeMode>absolute</altitudeMode>
        <coordinates>-91.783716,37.947635394654824,229.54921316550926</coordinates>
      </Point>
    </Placemark>
    <Placemark>
      <Style>
        <IconStyle>
          <color>ff0000ff</color>
          <scale>0.6</scale>
          <Icon>
            <href>http://maps.google.com/mapfiles/kml/shapes/placemark_circle.png</href>
          </Icon>
        </IconStyle>
      </Style>
      <Point>
        <altitudeMode>absolute</altitudeMode>
        <coordinates>-91.783716,37.94769658789198,282.8857131655093</coordinates>
      </Point>
    </Placemark>
    <Placemark>
      <Style>
        <IconStyle>
          <color>ff0000ff</color>
          <scale>0.6</scale>
          <Icon>
            <href>http://maps.google.com/mapfiles/kml/shapes/placemark_circle.png</href>
          </Icon>
        </IconStyle>
      </Style>
      <Point>
        <altitudeMode>absolute</altitudeMode>
        <coordinates>-91.783716,37.947763961538286,290.3857131655093</coordinates>
      </Point>
    </Placemark>
    <Placemark>
      <Style>
        <IconStyle>
          <color>ff0000ff</color>
          <scale>0.6</scale>
          <Icon>
            <href>http://maps.google.com/mapfiles/kml/shapes/placemark_circle.png</href>
          </Icon>
        </IconStyle>
      </Style>
      <Point>
        <altitudeMode>absolute</altitudeMode>
        <coordinates>-91.783716,37.94755962176061,297.8857131655093</coordinates>
      </Point>
    </Placemark>
    <Placemark>
      <Style>
        <IconStyle>
          <color>ff0000ff</color>
          <scale>0.6</scale>
          <Icon>
            <href>http://maps.google.com/mapfiles/kml/shapes/placemark_circle.png</href>
          </Icon>
        </IconStyle>
      </Style>
      <Point>
        <altitudeMode>absolute</altitudeMode>
        <coordinates>-91.783716,37.947617904456244,308.4957131655093</coordinates>
      </Point>
    </Placemark>
    <Placemark>
      <Style>
        <IconStyle>
          <color>ff0000ff</color>
          <scale>0.6</scale>
          <Icon>
            <href>http://maps.google.com/mapfiles/kml/shapes/placemark_circle.png</href>
          </Icon>
        </IconStyle>
      </Style>
      <Point>
        <altitudeMode>absolute</altitudeMode>
        <coordinates>-91.783716,37.94809088541964,353.7777131655092</coordinates>
      </Point>
    </Placemark>
    <Placemark>
      <Style>
        <IconStyle>
          <color>ff0000ff</color>
          <scale>0.6</scale>
          <Icon>
            <href>http://maps.google.com/mapfiles/kml/shapes/placemark_circle.png</href>
          </Icon>
        </IconStyle>
      </Style>
      <Point>
        <altitudeMode>absolute</altitudeMode>
        <coordinates>-91.783716,37.94808745385525,364.37771316550925</coordinates>
      </Point>
    </Placemark>
    <Placemark>
      <Style>
        <IconStyle>
          <color>ff0000ff</color>
          <scale>0.6</scale>
          <Icon>
            <href>http://maps.google.com/mapfiles/kml/shapes/placemark_circle.png</href>
          </Icon>
        </IconStyle>
      </Style>
      <Point>
        <altitudeMode>absolute</altitudeMode>
        <coordinates>-91.783716,37.94684853334801,459.93471316550927</coordinates>
      </Point>
    </Placemark>
    <Placemark>
      <Style>
        <IconStyle>
          <color>ff0000ff</color>
          <scale>0.6</scale>
          <Icon>
            <href>http://maps.google.com/mapfiles/kml/shapes/placemark_circle.png</href>
          </Icon>
        </IconStyle>
      </Style>
      <Point>
        <altitudeMode>absolute</altitudeMode>
        <coordinates>-91.783716,37.94691590699431,452.43471316550927</coordinates>
      </Point>
    </Placemark>
    <Placemark>
      <Style>
        <IconStyle>
          <color>ff0000ff</color>
          <scale>0.6</scale>
          <Icon>
            <href>http://maps.google.com/mapfiles/kml/shapes/placemark_circle.png</href>
          </Icon>
        </IconStyle>
      </Style>
      <Point>
        <altitudeMode>absolute</altitudeMode>
        <coordinates>-91.783716,37.94698328064062,459.93471316550927</coordinates>
      </Point>
    </Placemark>
    <Placemark>
      <Style>
        <IconStyle>
          <color>ff0000ff</color>
          <scale>0.6</scale>
          <Icon>
            <href>http://maps.google.com/mapfiles/kml/shapes/placemark_circle.png</href>
          </Icon>
        </IconStyle>
      </Style>
      <Point>
        <altitudeMode>absolute</altitudeMode>
        <coordinates>-91.783716,37.94736771466646,521.0927131655093</coordinates>
      </Point>
    </Placemark>
    <Placemark>
      <Style>
        <IconStyle>
          <color>ff0000ff</color>
          <scale>0.6</scale>
          <Icon>
            <href>http://maps.google.com/mapfiles/kml/shapes/placemark_circle.png</href>
          </Icon>
        </IconStyle>
      </Style>
      <Point>
        <altitudeMode>absolute</altitudeMode>
        <coordinates>-91.783716,37.950564558251216,531.3807131655093</coordinates>
      </Point>
    </Placemark>
    <Placemark>
      <Style>
        <IconStyle>
          <color>ff0000ff</color>
          <scale>0.6</scale>
          <Icon>
            <href>http://maps.google.com/mapfiles/kml/shapes/placemark_circle.png</href>
          </Icon>
        </IconStyle>
      </Style>
      <Point>
        <altitudeMode>absolute</altitudeMode>
        <coordinates>-91.783716,37.94997732954998,568.4887131655092</coordinates>
      </Point>
    </Placemark>
    <Placemark>
      <Style>
        <IconStyle>
          <color>ff0000ff</color>
          <scale>0.6</scale>
          <Icon>
            <href>http://maps.google.com/mapfiles/kml/shapes/placemark_circle.png</href>
          </Icon>
        </IconStyle>
      </Style>
      <Point>
        <altitudeMode>absolute</altitudeMode>
        <coordinates>-91.783716,37.94989970612628,562.3367131655093</coordinates>
      </Point>
    </Placemark>
    <Placemark>
      <Style>
        <IconStyle>
          <color>ff0000ff</color>
          <scale>0.6</scale>
          <Icon>
            <href>http://maps.google.com/mapfiles/kml/shapes/placemark_circle.png</href>
          </Icon>
        </IconStyle>
      </Style>
      <Point>
        <altitudeMode>absolute</altitudeMode>
        <coordinates>-91.783716,37.949954970482565,553.6967131655092</coordinates>
      </Point>
    </Placemark>
    <Placemark>
      <Style>
        <IconStyle>
          <color>ff0000ff</color>
          <scale>0.6</scale>
          <Icon>
            <href>http://maps.google.com/mapfiles/kml/shapes/placemark_circle.png</href>
          </Icon>
        </IconStyle>
      </Style>
      <Point>
        <altitudeMode>absolute</altitudeMode>
        <coordinates>-91.783716,37.950465250619445,521.3987131655092</coordinates>
      </Point>
    </Placemark>
    <Placemark>
      <Style>
        <IconStyle>
          <color>ff0000ff</color>
          <scale>0.6</scale>
          <Icon>
            <href>http://maps.google.com/mapfiles/kml/shapes/placemark_circle.png</href>
          </Icon>
        </IconStyle>
      </Style>
      <Point>
        <altitudeMode>absolute</altitudeMode>
        <coordinates>-91.783716,37.9503694441715,381.3237131655093</coordinates>
      </Point>
    </Placemark>
    <Placemark>
      <Style>
        <IconStyle>
          <color>ff0000ff</color>
          <scale>0.6</scale>
          <Icon>
            <href>http://maps.google.com/mapfiles/kml/shapes/placemark_circle.png</href>
          </Icon>
        </IconStyle>
      </Style>
      <Point>
        <altitudeMode>absolute</altitudeMode>
        <coordinates>-91.783716,37.94981216530184,322.8657131655093</coordinates>
      </Point>
    </Placemark>
    <Placemark>
      <Style>
        <IconStyle>
          <color>ff0000ff</color>
          <scale>0.6</scale>
          <Icon>
            <href>http://maps.google.com/mapfiles/kml/shapes/placemark_circle.png</href>
          </Icon>
        </IconStyle>
      </Style>
      <Point>
        <altitudeMode>absolute</altitudeMode>
        <coordinates>-91.783716,37.949387953875224,363.9957131655093</coordinates>
      </Point>
    </Placemark>
    <Placemark>
      <Style>
        <IconStyle>
          <color>ff0000ff</color>
          <scale>0.6</scale>
          <Icon>
            <href>http://maps.google.com/mapfiles/kml/shapes/placemark_circle.png</href>
          </Icon>
        </IconStyle>
      </Style>
      <Point>
        <altitudeMode>absolute</altitudeMode>
        <coordinates>-91.783716,37.94928929190757,353.7777131655092</coordinates>
      </Point>
    </Placemark>
    <Placemark>
      <Style>
        <IconStyle>
          <color>ff0000ff</color>
          <scale>0.6</scale>
          <Icon>
            <href>http://maps.google.com/mapfiles/kml/shapes/placemark_circle.png</href>
          </Icon>
        </IconStyle>
      </Style>
      <Point>
        <altitudeMode>absolute</altitudeMode>
        <coordinates>-91.783716,37.94972136359293,311.64171316550926</coordinates>
      </Point>
    </Placemark>
    <Placemark>
      <Style>
        <IconStyle>
          <color>ff0000ff</color>
          <scale>0.6</scale>
          <Icon>
            <href>http://maps.google.com/mapfiles/kml/shapes/placemark_circle.png</href>
          </Icon>
        </IconStyle>
      </Style>
      <Point>
        <altitudeMode>absolute</altitudeMode>
        <coordinates>-91.783716,37.949626097257045,294.2977131655092</coordinates>
      </Point>
    </Placemark>
    <Placemark>
      <Style>
        <IconStyle>
          <color>ff0000ff</color>
          <scale>0.6</scale>
          <Icon>
            <href>http://maps.google.com/mapfiles/kml/shapes/placemark_circle.png</href>
          </Icon>
        </IconStyle>
      </Style>
      <Point>
        <altitudeMode>absolute</altitudeMode>
        <coordinates>-91.783716,37.94962480368304,286.7167131655092</coordinates>
      </Point>
    </Placemark>
    <Placemark>
      <Style>
        <IconStyle>
          <color>ff0000ff</color>
          <scale>0.6</scale>
          <Icon>
            <href>http://maps.google.com/mapfiles/kml/shapes/placemark_circle.png</href>
          </Icon>
        </IconStyle>
      </Style>
      <Point>
        <altitudeMode>absolute</altitudeMode>
        <coordinates>-91.783716,37.949744764706075,282.8847131655092</coordinates>
      </Point>
    </Placemark>
    <Placemark>
      <Style>
        <IconStyle>
          <color>ff0000ff</color>
          <scale>0.6</scale>
          <Icon>
            <href>http://maps.google.com/mapfiles/kml/shapes/placemark_circle.png</href>
          </Icon>
        </IconStyle>
      </Style>
      <Point>
        <altitudeMode>absolute</altitudeMode>
        <coordinates>-91.783716,37.94974477368923,176.21171316550922</coordinates>
      </Point>
    </Placemark>
    <Placemark>
      <Style>
        <IconStyle>
          <color>ff0000ff</color>
          <scale>0.6</scale>
          <Icon>
            <href>http://maps.google.com/mapfiles/kml/shapes/placemark_circle.png</href>
          </Icon>
        </IconStyle>
      </Style>
      <Point>
        <altitudeMode>absolute</altitudeMode>
        <coordinates>-91.783716,37.94974476919766,229.54821316550922</coordinates>
      </Point>
    </Placemark>
    <Placemark>
      <Style>
        <IconStyle>
          <color>ff0000ff</color>
          <scale>0.6</scale>
          <Icon>
            <href>http://maps.google.com/mapfiles/kml/shapes/placemark_circle.png</href>
          </Icon>
        </IconStyle>
      </Style>
      <Point>
        <altitudeMode>absolute</altitudeMode>
        <coordinates>-91.783716,37.94981214733554,168.71171316550922</coordinates>
      </Point>
    </Placemark>
    <Placemark>
      <Style>
        <IconStyle>
          <color>ff0000ff</color>
          <scale>0.6</scale>
          <Icon>
            <href>http://maps.google.com/mapfiles/kml/shapes/placemark_circle.png</href>
          </Icon>
        </IconStyle>
      </Style>
      <Point>
        <altitudeMode>absolute</altitudeMode>
        <coordinates>-91.783716,37.949879511998695,282.8847131655092</coordinates>
      </Point>
    </Placemark>
    <Placemark>
      <Style>
        <IconStyle>
          <color>ff0000ff</color>
          <scale>0.6</scale>
          <Icon>
            <href>http://maps.google.com/mapfiles/kml/shapes/placemark_circle.png</href>
          </Icon>
        </IconStyle>
      </Style>
      <Point>
        <altitudeMode>absolute</altitudeMode>
        <coordinates>-91.783716,37.94987951649027,229.54821316550922</coordinates>
      </Point>
    </Placemark>
    <Placemark>
      <Style>
        <IconStyle>
          <color>ff0000ff</color>
          <scale>0.6</scale>
          <Icon>
            <href>http://maps.google.com/mapfiles/kml/shapes/placemark_circle.png</href>
          </Icon>
        </IconStyle>
      </Style>
      <Point>
        <altitudeMode>absolute</altitudeMode>
        <coordinates>-91.783716,37.949940714219004,282.8847131655092</coordinates>
      </Point>
    </Placemark>
    <Placemark>
      <Style>
        <IconStyle>
          <color>ff0000ff</color>
          <scale>0.6</scale>
          <Icon>
            <href>http://maps.google.com/mapfiles/kml/shapes/placemark_circle.png</href>
          </Icon>
        </IconStyle>
      </Style>
      <Point>
        <altitudeMode>absolute</altitudeMode>
        <coordinates>-91.783716,37.950008087865314,290.3847131655092</coordinates>
      </Point>
    </Placemark>
    <Placemark>
      <Style>
        <IconStyle>
          <color>ff0000ff</color>
          <scale>0.6</scale>
          <Icon>
            <href>http://maps.google.com/mapfiles/kml/shapes/placemark_circle.png</href>
          </Icon>
        </IconStyle>
      </Style>
      <Point>
        <altitudeMode>absolute</altitudeMode>
        <coordinates>-91.783716,37.94980374808763,297.8847131655092</coordinates>
      </Point>
    </Placemark>
    <Placemark>
      <Style>
        <IconStyle>
          <color>ff0000ff</color>
          <scale>0.6</scale>
          <Icon>
            <href>http://maps.google.com/mapfiles/kml/shapes/placemark_circle.png</href>
          </Icon>
        </IconStyle>
      </Style>
      <Point>
        <altitudeMode>absolute</altitudeMode>
        <coordinates>-91.783716,37.94986206671588,308.50271316550925</coordinates>
      </Point>
    </Placemark>
    <Placemark>
      <Style>
        <IconStyle>
          <color>ff0000ff</color>
          <scale>0.6</scale>
          <Icon>
            <href>http://maps.google.com/mapfiles/kml/shapes/placemark_circle.png</href>
          </Icon>
        </IconStyle>
      </Style>
      <Point>
        <altitudeMode>absolute</altitudeMode>
        <coordinates>-91.783716,37.950475669953846,372.09471316550923</coordinates>
      </Point>
    </Placemark>
    <Placemark>
      <Style>
        <IconStyle>
          <color>ff0000ff</color>
          <scale>0.6</scale>
          <Icon>
            <href>http://maps.google.com/mapfiles/kml/shapes/placemark_circle.png</href>
          </Icon>
        </IconStyle>
      </Style>
      <Point>
        <altitudeMode>absolute</altitudeMode>
        <coordinates>-91.783716,37.950801120598136,459.93471316550927</coordinates>
      </Point>
    </Placemark>
    <Placemark>
      <Style>
        <IconStyle>
          <color>ff0000ff</color>
          <scale>0.6</scale>
          <Icon>
            <href>http://maps.google.com/mapfiles/kml/shapes/placemark_circle.png</href>
          </Icon>
        </IconStyle>
      </Style>
      <Point>
        <altitudeMode>absolute</altitudeMode>
        <coordinates>-91.783716,37.94984290565087,510.3807131655093</coordinates>
      </Point>
    </Placemark>
    <Placemark>
      <Style>
        <IconStyle>
          <color>ff0000ff</color>
          <scale>0.6</scale>
          <Icon>
            <href>http://maps.google.com/mapfiles/kml/shapes/placemark_circle.png</href>
          </Icon>
        </IconStyle>
      </Style>
      <Point>
        <altitudeMode>absolute</altitudeMode>
        <coordinates>-91.783716,37.94974593027016,460.53721316550923</coordinates>
      </Point>
    </Placemark>
    <Placemark>
      <Style>
        <IconStyle>
          <color>ff0000ff</color>
          <scale>0.6</scale>
          <Icon>
            <href>http://maps.google.com/mapfiles/kml/shapes/placemark_circle.png</href>
          </Icon>
        </IconStyle>
      </Style>
      <Point>
        <altitudeMode>absolute</altitudeMode>
        <coordinates>-91.783716,37.94869007968045,638.7127131655093</coordinates>
      </Point>
    </Placemark>
    <Placemark>
      <Style>
        <IconStyle>
          <color>ff0000ff</color>
          <scale>0.6</scale>
          <Icon>
            <href>http://maps.google.com/mapfiles/kml/shapes/placemark_circle.png</href>
          </Icon>
        </IconStyle>
      </Style>
      <Point>
        <altitudeMode>absolute</altitudeMode>
        <coordinates>-91.783716,37.949752168368,560.2857287905092</coordinates>
      </Point>
    </Placemark>
    <Placemark>
      <Style>
        <IconStyle>
          <color>ff0000ff</color>
          <scale>0.6</scale>
          <Icon>
            <href>http://maps.google.com/mapfiles/kml/shapes/placemark_circle.png</href>
          </Icon>
        </IconStyle>
      </Style>
      <Point>
        <altitudeMode>absolute</altitudeMode>
        <coordinates>-91.783716,37.94913838406335,628.6118850405093</coordinates>
      </Point>
    </Placemark>
    <Placemark>
      <Style>
        <IconStyle>
          <color>ff0000ff</color>
          <scale>0.6</scale>
          <Icon>
            <href>http://maps.google.com/mapfiles/kml/shapes/placemark_circle.png</href>
          </Icon>
        </IconStyle>
      </Style>
      <Point>
        <altitudeMode>absolute</altitudeMode>
        <coordinates>-91.783716,37.94753725371004,510.3807131655093</coordinates>
      </Point>
    </Placemark>
    <Placemark>
      <Style>
        <IconStyle>
          <color>ff0000ff</color>
          <scale>0.6</scale>
          <Icon>
            <href>http://maps.google.com/mapfiles/kml/shapes/placemark_circle.png</href>
          </Icon>
        </IconStyle>
      </Style>
      <Point>
        <altitudeMode>absolute</altitudeMode>
        <coordinates>-91.783716,37.948241775297554,628.6118850405093</coordinates>
      </Point>
    </Placemark>
    <Placemark>
      <Style>
        <IconStyle>
          <color>ff0000ff</color>
          <scale>0.6</scale>
          <Icon>
            <href>http://maps.google.com/mapfiles/kml/shapes/placemark_circle.png</href>
          </Icon>
        </IconStyle>
      </Style>
      <Point>
        <altitudeMode>absolute</altitudeMode>
        <coordinates>-91.783716,37.94787528862856,601.0828381655092</coordinates>
      </Point>
    </Placemark>
    <Placemark>
      <Style>
        <IconStyle>
          <color>ff0000ff</color>
          <scale>0.6</scale>
          <Icon>
            <href>http://maps.google.com/mapfiles/kml/shapes/placemark_circle.png</href>
          </Icon>
        </IconStyle>
      </Style>
      <Point>
        <altitudeMode>absolute</altitudeMode>
        <coordinates>-91.783716,37.94791803159267,407.74471316550927</coordinates>
      </Point>
    </Placemark>
    <Placemark>
      <Style>
        <IconStyle>
          <color>ff0000ff</color>
          <scale>0.6</scale>
          <Icon>
            <href>http://maps.google.com/mapfiles/kml/shapes/placemark_circle.png</href>
          </Icon>
        </IconStyle>
      </Style>
      <Point>
        <altitudeMode>absolute</altitudeMode>
        <coordinates>-91.783716,37.94763422572206,460.53758816550925</coordinates>
      </Point>
    </Placemark>
    <Placemark>
      <Style>
        <IconStyle>
          <color>ff0000ff</color>
          <scale>0.6</scale>
          <Icon>
            <href>http://maps.google.com/mapfiles/kml/shapes/placemark_circle.png</href>
          </Icon>
        </IconStyle>
      </Style>
      <Point>
        <altitudeMode>absolute</altitudeMode>
        <coordinates>-91.783716,37.948599215089466,336.0867131655093</coordinates>
      </Point>
    </Placemark>
    <Placemark>
      <Style>
        <IconStyle>
          <color>ff0000ff</color>
          <scale>0.6</scale>
          <Icon>
            <href>http://maps.google.com/mapfiles/kml/shapes/placemark_circle.png</href>
          </Icon>
        </IconStyle>
      </Style>
      <Point>
        <altitudeMode>absolute</altitudeMode>
        <coordinates>-91.783716,37.94823338180448,369.41446316550923</coordinates>
      </Point>
    </Placemark>
    <Placemark>
      <Style>
        <IconStyle>
          <color>ff0000ff</color>
          <scale>0.6</scale>
          <Icon>
            <href>http://maps.google.com/mapfiles/kml/shapes/placemark_circle.png</href>
          </Icon>
        </IconStyle>
      </Style>
      <Point>
        <altitudeMode>absolute</altitudeMode>
        <coordinates>-91.783716,37.94847989187027,307.01771316550924</coordinates>
      </Point>
    </Placemark>
    <Placemark>
      <Style>
        <IconStyle>
          <color>ff0000ff</color>
          <scale>0.6</scale>
          <Icon>
            <href>http://maps.google.com/mapfiles/kml/shapes/placemark_circle.png</href>
          </Icon>
        </IconStyle>
      </Style>
      <Point>
        <altitudeMode>absolute</altitudeMode>
        <coordinates>-91.783716,37.94853865965616,303.18571316550924</coordinates>
      </Point>
    </Placemark>
    <Placemark>
      <Style>
        <IconStyle>
          <color>ff0000ff</color>
          <scale>0.6</scale>
          <Icon>
            <href>http://maps.google.com/mapfiles/kml/shapes/placemark_circle.png</href>
          </Icon>
        </IconStyle>
      </Style>
      <Point>
        <altitudeMode>absolute</altitudeMode>
        <coordinates>-91.783716,37.94862270603414,303.18571316550924</coordinates>
      </Point>
    </Placemark>
    <Placemark>
      <Style>
        <IconStyle>
          <color>ff0000ff</color>
          <scale>0.6</scale>
          <Icon>
            <href>http://maps.google.com/mapfiles/kml/shapes/placemark_circle.png</href>
          </Icon>
        </IconStyle>
      </Style>
      <Point>
        <altitudeMode>absolute</altitudeMode>
        <coordinates>-91.783716,37.94862270603414,176.21271316550926</coordinates>
      </Point>
    </Placemark>
    <Placemark>
      <Style>
        <IconStyle>
          <color>ff0000ff</color>
          <scale>0.6</scale>
          <Icon>
            <href>http://maps.google.com/mapfiles/kml/shapes/placemark_circle.png</href>
          </Icon>
        </IconStyle>
      </Style>
      <Point>
        <altitudeMode>absolute</altitudeMode>
        <coordinates>-91.783716,37.94869007968045,168.71271316550926</coordinates>
      </Point>
    </Placemark>
    <Placemark>
      <Style>
        <IconStyle>
          <color>ff0000ff</color>
          <scale>0.6</scale>
          <Icon>
            <href>http://maps.google.com/mapfiles/kml/shapes/placemark_circle.png</href>
          </Icon>
        </IconStyle>
      </Style>
      <Point>
        <altitudeMode>absolute</altitudeMode>
        <coordinates>-91.783716,37.94875745332676,176.21271316550926</coordinates>
      </Point>
    </Placemark>
    <Placemark>
      <Style>
        <IconStyle>
          <color>ff0000ff</color>
          <scale>0.6</scale>
          <Icon>
            <href>http://maps.google.com/mapfiles/kml/shapes/placemark_circle.png</href>
          </Icon>
        </IconStyle>
      </Style>
      <Point>
        <altitudeMode>absolute</altitudeMode>
        <coordinates>-91.783716,37.94875745332676,303.18571316550924</coordinates>
      </Point>
    </Placemark>
    <Placemark>
      <Style>
        <IconStyle>
          <color>ff0000ff</color>
          <scale>0.6</scale>
          <Icon>
            <href>http://maps.google.com/mapfiles/kml/shapes/placemark_circle.png</href>
          </Icon>
        </IconStyle>
      </Style>
      <Point>
        <altitudeMode>absolute</altitudeMode>
        <coordinates>-91.783716,37.94875745332676,239.69921316550924</coordinates>
      </Point>
    </Placemark>
    <Placemark>
      <Style>
        <IconStyle>
          <color>ff0000ff</color>
          <scale>0.6</scale>
          <Icon>
            <href>http://maps.google.com/mapfiles/kml/shapes/placemark_circle.png</href>
          </Icon>
        </IconStyle>
      </Style>
      <Point>
        <altitudeMode>absolute</altitudeMode>
        <coordinates>-91.783716,37.9489088823342,310.68571316550924</coordinates>
      </Point>
    </Placemark>
    <Placemark>
      <Style>
        <IconStyle>
          <color>ff0000ff</color>
          <scale>0.6</scale>
          <Icon>
            <href>http://maps.google.com/mapfiles/kml/shapes/placemark_circle.png</href>
          </Icon>
        </IconStyle>
      </Style>
      <Point>
        <altitudeMode>absolute</altitudeMode>
        <coordinates>-91.783716,37.9488415086879,318.18571316550924</coordinates>
      </Point>
    </Placemark>
    <Placemark>
      <Style>
        <IconStyle>
          <color>ff0000ff</color>
          <scale>0.6</scale>
          <Icon>
            <href>http://maps.google.com/mapfiles/kml/shapes/placemark_circle.png</href>
          </Icon>
        </IconStyle>
      </Style>
      <Point>
        <altitudeMode>absolute</altitudeMode>
        <coordinates>-91.783716,37.948658818308566,318.18571316550924</coordinates>
      </Point>
    </Placemark>
    <Placemark>
      <Style>
        <IconStyle>
          <color>ff0000ff</color>
          <scale>0.6</scale>
          <Icon>
            <href>http://maps.google.com/mapfiles/kml/shapes/placemark_circle.png</href>
          </Icon>
        </IconStyle>
      </Style>
      <Point>
        <altitudeMode>absolute</altitudeMode>
        <coordinates>-91.783716,37.94874000804394,332.9667131655093</coordinates>
      </Point>
    </Placemark>
    <Placemark>
      <Style>
        <IconStyle>
          <color>ff0000ff</color>
          <scale>0.6</scale>
          <Icon>
            <href>http://maps.google.com/mapfiles/kml/shapes/placemark_circle.png</href>
          </Icon>
        </IconStyle>
      </Style>
      <Point>
        <altitudeMode>absolute</altitudeMode>
        <coordinates>-91.783716,37.94802426635817,416.9727131655093</coordinates>
      </Point>
    </Placemark>
    <Placemark>
      <Style>
        <IconStyle>
          <color>ff0000ff</color>
          <scale>0.6</scale>
          <Icon>
            <href>http://maps.google.com/mapfiles/kml/shapes/placemark_circle.png</href>
          </Icon>
        </IconStyle>
      </Style>
      <Point>
        <altitudeMode>absolute</altitudeMode>
        <coordinates>-91.783716,37.94767200100265,510.3807131655093</coordinates>
      </Point>
    </Placemark>
    <Placemark>
      <Style>
        <IconStyle>
          <color>ff0000ff</color>
          <scale>0.6</scale>
          <Icon>
            <href>http://maps.google.com/mapfiles/kml/shapes/placemark_circle.png</href>
          </Icon>
        </IconStyle>
      </Style>
      <Point>
        <altitudeMode>absolute</altitudeMode>
        <coordinates>-91.783716,37.94776171350429,465.41896316550924</coordinates>
      </Point>
    </Placemark>
    <Placemark>
      <Style>
        <IconStyle>
          <color>ff0000ff</color>
          <scale>0.6</scale>
          <Icon>
            <href>http://maps.google.com/mapfiles/kml/shapes/placemark_circle.png</href>
          </Icon>
        </IconStyle>
      </Style>
      <Point>
        <altitudeMode>absolute</altitudeMode>
        <coordinates>-91.783716,37.94869007968045,623.7127131655093</coordinates>
      </Point>
    </Placemark>
    <Placemark>
      <Style>
        <IconStyle>
          <color>ff0000ff</color>
          <scale>0.6</scale>
          <Icon>
            <href>http://maps.google.com/mapfiles/kml/shapes/placemark_circle.png</href>
          </Icon>
        </IconStyle>
      </Style>
      <Point>
        <altitudeMode>absolute</altitudeMode>
        <coordinates>-91.783716,37.948176637265824,608.2174539062501</coordinates>
      </Point>
    </Placemark>
    <Placemark>
      <Style>
        <IconStyle>
          <color>ff0000ff</color>
          <scale>0.6</scale>
          <Icon>
            <href>http://maps.google.com/mapfiles/kml/shapes/placemark_circle.png</href>
          </Icon>
        </IconStyle>
      </Style>
      <Point>
        <altitudeMode>absolute</altitudeMode>
        <coordinates>-91.783716,37.94970815835825,510.3807131655093</coordinates>
      </Point>
    </Placemark>
    <Placemark>
      <Style>
        <IconStyle>
          <color>ff0000ff</color>
          <scale>0.6</scale>
          <Icon>
            <href>http://maps.google.com/mapfiles/kml/shapes/placemark_circle.png</href>
          </Icon>
        </IconStyle>
      </Style>
      <Point>
        <altitudeMode>absolute</altitudeMode>
        <coordinates>-91.783716,37.94920352209508,608.2174539062501</coordinates>
      </Point>
    </Placemark>
    <Placemark>
      <Style>
        <IconStyle>
          <color>ff0000ff</color>
          <scale>0.6</scale>
          <Icon>
            <href>http://maps.google.com/mapfiles/kml/shapes/placemark_circle.png</href>
          </Icon>
        </IconStyle>
      </Style>
      <Point>
        <altitudeMode>absolute</altitudeMode>
        <coordinates>-91.783716,37.94956896007975,567.5373057581019</coordinates>
      </Point>
    </Placemark>
    <Placemark>
      <Style>
        <IconStyle>
          <color>ff0000ff</color>
          <scale>0.6</scale>
          <Icon>
            <href>http://maps.google.com/mapfiles/kml/shapes/placemark_circle.png</href>
          </Icon>
        </IconStyle>
      </Style>
      <Point>
        <altitudeMode>absolute</altitudeMode>
        <coordinates>-91.783716,37.949618445856615,465.41896316550924</coordinates>
      </Point>
    </Placemark>
    <Placemark>
      <Style>
        <IconStyle>
          <color>ff0000ff</color>
          <scale>0.6</scale>
          <Icon>
            <href>http://maps.google.com/mapfiles/kml/shapes/placemark_circle.png</href>
          </Icon>
        </IconStyle>
      </Style>
      <Point>
        <altitudeMode>absolute</altitudeMode>
        <coordinates>-91.783716,37.94869007968045,347.3167131655092</coordinates>
      </Point>
    </Placemark>
    <Placemark>
      <Style>
        <IconStyle>
          <color>ff0000ff</color>
          <scale>0.6</scale>
          <Icon>
            <href>http://maps.google.com/mapfiles/kml/shapes/placemark_circle.png</href>
          </Icon>
        </IconStyle>
      </Style>
      <Point>
        <altitudeMode>absolute</altitudeMode>
        <coordinates>-91.783716,37.949047722575834,379.6205881655093</coordinates>
      </Point>
    </Placemark>
    <Placemark>
      <Style>
        <IconStyle>
          <color>ff0000ff</color>
          <scale>0.6</scale>
          <Icon>
            <href>http://maps.google.com/mapfiles/kml/shapes/placemark_circle.png</href>
          </Icon>
        </IconStyle>
      </Style>
      <Point>
        <altitudeMode>absolute</altitudeMode>
        <coordinates>-91.783716,37.948332436785066,379.6202131655093</coordinates>
      </Point>
    </Placemark>
    <Placemark>
      <Style>
        <IconStyle>
          <color>ff0000ff</color>
          <scale>0.6</scale>
          <Icon>
            <href>http://maps.google.com/mapfiles/kml/shapes/placemark_circle.png</href>
          </Icon>
        </IconStyle>
      </Style>
      <Point>
        <altitudeMode>absolute</altitudeMode>
        <coordinates>-91.783716,37.94794149558789,510.39271316550924</coordinates>
      </Point>
    </Placemark>
    <Placemark>
      <Style>
        <IconStyle>
          <color>ff0000ff</color>
          <scale>0.6</scale>
          <Icon>
            <href>http://maps.google.com/mapfiles/kml/shapes/placemark_circle.png</href>
          </Icon>
        </IconStyle>
      </Style>
      <Point>
        <altitudeMode>absolute</altitudeMode>
        <coordinates>-91.783716,37.94869007968045,593.7127131655093</coordinates>
      </Point>
    </Placemark>
    <Placemark>
      <Style>
        <IconStyle>
          <color>ff0000ff</color>
          <scale>0.6</scale>
          <Icon>
            <href>http://maps.google.com/mapfiles/kml/shapes/placemark_circle.png</href>
          </Icon>
        </IconStyle>
      </Style>
      <Point>
        <altitudeMode>absolute</altitudeMode>
        <coordinates>-91.783716,37.948161040474645,569.2813381655093</coordinates>
      </Point>
    </Placemark>
    <Placemark>
      <Style>
        <IconStyle>
          <color>ff0000ff</color>
          <scale>0.6</scale>
          <Icon>
            <href>http://maps.google.com/mapfiles/kml/shapes/placemark_circle.png</href>
          </Icon>
        </IconStyle>
      </Style>
      <Point>
        <altitudeMode>absolute</altitudeMode>
        <coordinates>-91.783716,37.94875745332676,601.2127131655093</coordinates>
      </Point>
    </Placemark>
    <Placemark>
      <Style>
        <IconStyle>
          <color>ff0000ff</color>
          <scale>0.6</scale>
          <Icon>
            <href>http://maps.google.com/mapfiles/kml/shapes/placemark_circle.png</href>
          </Icon>
        </IconStyle>
      </Style>
      <Point>
        <altitudeMode>absolute</altitudeMode>
        <coordinates>-91.783716,37.94780674829527,510.3947131655093</coordinates>
      </Point>
    </Placemark>
    <Placemark>
      <Style>
        <IconStyle>
          <color>ff0000ff</color>
          <scale>0.6</scale>
          <Icon>
            <href>http://maps.google.com/mapfiles/kml/shapes/placemark_circle.png</href>
          </Icon>
        </IconStyle>
      </Style>
      <Point>
        <altitudeMode>absolute</altitudeMode>
        <coordinates>-91.783716,37.94824463773657,595.2701946469907</coordinates>
      </Point>
    </Placemark>
    <Placemark>
      <Style>
        <IconStyle>
          <color>ff0000ff</color>
          <scale>0.6</scale>
          <Icon>
            <href>http://maps.google.com/mapfiles/kml/shapes/placemark_circle.png</href>
          </Icon>
        </IconStyle>
      </Style>
      <Point>
        <altitudeMode>absolute</altitudeMode>
        <coordinates>-91.783716,37.94792756903931,559.9792316840278</coordinates>
      </Point>
    </Placemark>
    <Placemark>
      <Style>
        <IconStyle>
          <color>ff0000ff</color>
          <scale>0.6</scale>
          <Icon>
            <href>http://maps.google.com/mapfiles/kml/shapes/placemark_circle.png</href>
          </Icon>
        </IconStyle>
      </Style>
      <Point>
        <altitudeMode>absolute</altitudeMode>
        <coordinates>-91.783716,37.94798758814512,483.41571316550926</coordinates>
      </Point>
    </Placemark>
    <Placemark>
      <Style>
        <IconStyle>
          <color>ff0000ff</color>
          <scale>0.6</scale>
          <Icon>
            <href>http://maps.google.com/mapfiles/kml/shapes/placemark_circle.png</href>
          </Icon>
        </IconStyle>
      </Style>
      <Point>
        <altitudeMode>absolute</altitudeMode>
        <coordinates>-91.783716,37.94786056636394,478.4097131655093</coordinates>
      </Point>
    </Placemark>
    <Placemark>
      <Style>
        <IconStyle>
          <color>ff0000ff</color>
          <scale>0.6</scale>
          <Icon>
            <href>http://maps.google.com/mapfiles/kml/shapes/placemark_circle.png</href>
          </Icon>
        </IconStyle>
      </Style>
      <Point>
        <altitudeMode>absolute</altitudeMode>
        <coordinates>-91.783716,37.94813050112367,426.2007131655092</coordinates>
      </Point>
    </Placemark>
    <Placemark>
      <Style>
        <IconStyle>
          <color>ff0000ff</color>
          <scale>0.6</scale>
          <Icon>
            <href>http://maps.google.com/mapfiles/kml/shapes/placemark_circle.png</href>
          </Icon>
        </IconStyle>
      </Style>
      <Point>
        <altitudeMode>absolute</altitudeMode>
        <coordinates>-91.783716,37.948183663422185,423.3137131655093</coordinates>
      </Point>
    </Placemark>
    <Placemark>
      <Style>
        <IconStyle>
          <color>ff0000ff</color>
          <scale>0.6</scale>
          <Icon>
            <href>http://maps.google.com/mapfiles/kml/shapes/placemark_circle.png</href>
          </Icon>
        </IconStyle>
      </Style>
      <Point>
        <altitudeMode>absolute</altitudeMode>
        <coordinates>-91.783716,37.94822506677363,424.9007131655093</coordinates>
      </Point>
    </Placemark>
  </Document>
</kml>
